{"type":"FeatureCollection","features":[{"type":"Feature","properties":{"GRID_ID":1,"GRID_X":1603500.0,"GRID_Y":540500.0,"SPACING_M":500},"geometry":{"type":"Point","coordinates":[-117.64349116301702,49.5598284433631]}},{"type":"Feature","properties":{"GRID_ID":2,"GRID_X":1603500.0,"GRID_Y":541000.0,"SPACING_M":500},"geometry":{"type":"Point","coordinates":[-117.64267761470795,49.56429511523633]}},{"type":"Feature","properties":{"GRID_ID":3,"GRID_X":1603500.0,"GRID_Y":541500.0,"SPACING_M":500},"geometry":{"type":"Point","coordinates":[-117.64186390871419,49.56876175220061]}},{"type":"Feature","properties":{"GRID_ID":4,"GRID_X":1604000.0,"GRID_Y":538500.0,"SPACING_M":500},"geometry":{"type":"Point","coordinates":[-117.63988724375962,49.5414316554003]}},{"type":"Feature","properties":{"GRID_ID":5,"GRID_X":1604000.0,"GRID_Y":539000.0,"SPACING_M":500},"geometry":{"type":"Point","coordinates":[-117.63907367092304,49.54589841921097]}},{"type":"Feature","properties":{"GRID_ID":6,"GRID_X":1604000.0,"GRID_Y":539500.0,"SPACING_M":500},"geometry":{"type":"Point","coordinates":[-117.63825994046086,49.55036514802656]}},{"type":"Feature","properties":{"GRID_ID":7,"GRID_X":1604000.0,"GRID_Y":540000.0,"SPACING_M":500},"geometry":{"type":"Point","coordinates":[-117.63744605232752,49.55483184186568]}},{"type":"Feature","properties":{"GRID_ID":8,"GRID_X":1604000.0,"GRID_Y":540500.0,"SPACING_M":500},"geometry":{"type":"Point","coordinates":[-117.63663200647737,49.55929850074698]}},{"type":"Feature","properties":{"GRID_ID":9,"GRID_X":1604000.0,"GRID_Y":541000.0,"SPACING_M":500},"geometry":{"type":"Point","coordinates":[-117.6358178028648,49.56376512468906]}},{"type":"Feature","properties":{"GRID_ID":10,"GRID_X":1604000.0,"GRID_Y":541500.0,"SPACING_M":500},"geometry":{"type":"Point","coordinates":[-117.63500344144417,49.56823171371058]}},{"type":"Feature","properties":{"GRID_ID":11,"GRID_X":1604000.0,"GRID_Y":542000.0,"SPACING_M":500},"geometry":{"type":"Point","coordinates":[-117.6341889221698,49.57269826783012]}},{"type":"Feature","properties":{"GRID_ID":12,"GRID_X":1604500.0,"GRID_Y":537000.0,"SPACING_M":500},"geometry":{"type":"Point","coordinates":[-117.63547260154805,49.52750111346956]}},{"type":"Feature","properties":{"GRID_ID":13,"GRID_X":1604500.0,"GRID_Y":537500.0,"SPACING_M":500},"geometry":{"type":"Point","coordinates":[-117.6346588469195,49.531967934489515]}},{"type":"Feature","properties":{"GRID_ID":14,"GRID_X":1604500.0,"GRID_Y":538000.0,"SPACING_M":500},"geometry":{"type":"Point","coordinates":[-117.63384493467899,49.53643472044695]}},{"type":"Feature","properties":{"GRID_ID":15,"GRID_X":1604500.0,"GRID_Y":538500.0,"SPACING_M":500},"geometry":{"type":"Point","coordinates":[-117.63303086478084,49.540901471360485]}},{"type":"Feature","properties":{"GRID_ID":16,"GRID_X":1604500.0,"GRID_Y":539000.0,"SPACING_M":500},"geometry":{"type":"Point","coordinates":[-117.63221663717952,49.54536818724877]}},{"type":"Feature","properties":{"GRID_ID":17,"GRID_X":1604500.0,"GRID_Y":539500.0,"SPACING_M":500},"geometry":{"type":"Point","coordinates":[-117.6314022518294,49.549834868130354]}},{"type":"Feature","properties":{"GRID_ID":18,"GRID_X":1604500.0,"GRID_Y":540000.0,"SPACING_M":500},"geometry":{"type":"Point","coordinates":[-117.63058770868483,49.55430151402391]}},{"type":"Feature","properties":{"GRID_ID":19,"GRID_X":1604500.0,"GRID_Y":540500.0,"SPACING_M":500},"geometry":{"type":"Point","coordinates":[-117.62977300770018,49.55876812494795]}},{"type":"Feature","properties":{"GRID_ID":20,"GRID_X":1604500.0,"GRID_Y":541000.0,"SPACING_M":500},"geometry":{"type":"Point","coordinates":[-117.62895814882977,49.56323470092121]}},{"type":"Feature","properties":{"GRID_ID":21,"GRID_X":1604500.0,"GRID_Y":541500.0,"SPACING_M":500},"geometry":{"type":"Point","coordinates":[-117.6281431320279,49.56770124196214]}},{"type":"Feature","properties":{"GRID_ID":22,"GRID_X":1604500.0,"GRID_Y":542000.0,"SPACING_M":500},"geometry":{"type":"Point","coordinates":[-117.6273279572489,49.57216774808961]}},{"type":"Feature","properties":{"GRID_ID":23,"GRID_X":1604500.0,"GRID_Y":542500.0,"SPACING_M":500},"geometry":{"type":"Point","coordinates":[-117.62651262444705,49.576634219321996]}},{"type":"Feature","properties":{"GRID_ID":24,"GRID_X":1605000.0,"GRID_Y":536500.0,"SPACING_M":500},"geometry":{"type":"Point","coordinates":[-117.62943259497955,49.52250383203474]}},{"type":"Feature","properties":{"GRID_ID":25,"GRID_X":1605000.0,"GRID_Y":537000.0,"SPACING_M":500},"geometry":{"type":"Point","coordinates":[-117.62861834369086,49.52697064022217]}},{"type":"Feature","properties":{"GRID_ID":26,"GRID_X":1605000.0,"GRID_Y":537500.0,"SPACING_M":500},"geometry":{"type":"Point","coordinates":[-117.62780393471266,49.531437413316894]}},{"type":"Feature","properties":{"GRID_ID":27,"GRID_X":1605000.0,"GRID_Y":538000.0,"SPACING_M":500},"geometry":{"type":"Point","coordinates":[-117.62698936799933,49.53590415133754]}},{"type":"Feature","properties":{"GRID_ID":28,"GRID_X":1605000.0,"GRID_Y":538500.0,"SPACING_M":500},"geometry":{"type":"Point","coordinates":[-117.62617464350527,49.54037085430262]}},{"type":"Feature","properties":{"GRID_ID":29,"GRID_X":1605000.0,"GRID_Y":539000.0,"SPACING_M":500},"geometry":{"type":"Point","coordinates":[-117.62535976118482,49.54483752223079]}},{"type":"Feature","properties":{"GRID_ID":30,"GRID_X":1605000.0,"GRID_Y":539500.0,"SPACING_M":500},"geometry":{"type":"Point","coordinates":[-117.62454472099238,49.54930415514073]}},{"type":"Feature","properties":{"GRID_ID":31,"GRID_X":1605000.0,"GRID_Y":540000.0,"SPACING_M":500},"geometry":{"type":"Point","coordinates":[-117.62372952288224,49.553770753050905]}},{"type":"Feature","properties":{"GRID_ID":32,"GRID_X":1605000.0,"GRID_Y":540500.0,"SPACING_M":500},"geometry":{"type":"Point","coordinates":[-117.62291416680873,49.55823731598]}},{"type":"Feature","properties":{"GRID_ID":33,"GRID_X":1605000.0,"GRID_Y":541000.0,"SPACING_M":500},"geometry":{"type":"Point","coordinates":[-117.62209865272614,49.56270384394659]}},{"type":"Feature","properties":{"GRID_ID":34,"GRID_X":1605000.0,"GRID_Y":541500.0,"SPACING_M":500},"geometry":{"type":"Point","coordinates":[-117.62128298058876,49.56717033696928]}},{"type":"Feature","properties":{"GRID_ID":35,"GRID_X":1605000.0,"GRID_Y":542000.0,"SPACING_M":500},"geometry":{"type":"Point","coordinates":[-117.62046715035088,49.571636795066745]}},{"type":"Feature","properties":{"GRID_ID":36,"GRID_X":1605000.0,"GRID_Y":542500.0,"SPACING_M":500},"geometry":{"type":"Point","coordinates":[-117.6196511619667,49.57610321825762]}},{"type":"Feature","properties":{"GRID_ID":37,"GRID_X":1605000.0,"GRID_Y":543000.0,"SPACING_M":500},"geometry":{"type":"Point","coordinates":[-117.61883501539046,49.580569606560424]}},{"type":"Feature","properties":{"GRID_ID":38,"GRID_X":1605500.0,"GRID_Y":536000.0,"SPACING_M":500},"geometry":{"type":"Point","coordinates":[-117.62339389669566,49.51750617848835]}},{"type":"Feature","properties":{"GRID_ID":39,"GRID_X":1605500.0,"GRID_Y":536500.0,"SPACING_M":500},"geometry":{"type":"Point","coordinates":[-117.62257914899294,49.521972973847475]}},{"type":"Feature","properties":{"GRID_ID":40,"GRID_X":1605500.0,"GRID_Y":537000.0,"SPACING_M":500},"geometry":{"type":"Point","coordinates":[-117.62176424352323,49.526439734083596]}},{"type":"Feature","properties":{"GRID_ID":41,"GRID_X":1605500.0,"GRID_Y":537500.0,"SPACING_M":500},"geometry":{"type":"Point","coordinates":[-117.62094918024094,49.53090645921549]}},{"type":"Feature","properties":{"GRID_ID":42,"GRID_X":1605500.0,"GRID_Y":538000.0,"SPACING_M":500},"geometry":{"type":"Point","coordinates":[-117.62013395910044,49.53537314926163]}},{"type":"Feature","properties":{"GRID_ID":43,"GRID_X":1605500.0,"GRID_Y":538500.0,"SPACING_M":500},"geometry":{"type":"Point","coordinates":[-117.61931858005606,49.53983980424057]}},{"type":"Feature","properties":{"GRID_ID":44,"GRID_X":1605500.0,"GRID_Y":539000.0,"SPACING_M":500},"geometry":{"type":"Point","coordinates":[-117.61850304306216,49.54430642417102]}},{"type":"Feature","properties":{"GRID_ID":45,"GRID_X":1605500.0,"GRID_Y":539500.0,"SPACING_M":500},"geometry":{"type":"Point","coordinates":[-117.61768734807303,49.54877300907152]}},{"type":"Feature","properties":{"GRID_ID":46,"GRID_X":1605500.0,"GRID_Y":540000.0,"SPACING_M":500},"geometry":{"type":"Point","coordinates":[-117.61687149504301,49.55323955896063]}},{"type":"Feature","properties":{"GRID_ID":47,"GRID_X":1605500.0,"GRID_Y":540500.0,"SPACING_M":500},"geometry":{"type":"Point","coordinates":[-117.61605548392635,49.557706073857]}},{"type":"Feature","properties":{"GRID_ID":48,"GRID_X":1605500.0,"GRID_Y":541000.0,"SPACING_M":500},"geometry":{"type":"Point","coordinates":[-117.6152393146773,49.56217255377915]}},{"type":"Feature","properties":{"GRID_ID":49,"GRID_X":1605500.0,"GRID_Y":541500.0,"SPACING_M":500},"geometry":{"type":"Point","coordinates":[-117.61442298725017,49.56663899874586]}},{"type":"Feature","properties":{"GRID_ID":50,"GRID_X":1605500.0,"GRID_Y":542000.0,"SPACING_M":500},"geometry":{"type":"Point","coordinates":[-117.61360650159912,49.57110540877564]}},{"type":"Feature","properties":{"GRID_ID":51,"GRID_X":1605500.0,"GRID_Y":542500.0,"SPACING_M":500},"geometry":{"type":"Point","coordinates":[-117.6127898576784,49.5755717838871]}},{"type":"Feature","properties":{"GRID_ID":52,"GRID_X":1605500.0,"GRID_Y":543000.0,"SPACING_M":500},"geometry":{"type":"Point","coordinates":[-117.61197305544216,49.580038124098905]}},{"type":"Feature","properties":{"GRID_ID":53,"GRID_X":1605500.0,"GRID_Y":543500.0,"SPACING_M":500},"geometry":{"type":"Point","coordinates":[-117.61115609484466,49.58450442942959]}},{"type":"Feature","properties":{"GRID_ID":54,"GRID_X":1606000.0,"GRID_Y":535500.0,"SPACING_M":500},"geometry":{"type":"Point","coordinates":[-117.61735650635923,49.51250815290391]}},{"type":"Feature","properties":{"GRID_ID":55,"GRID_X":1606000.0,"GRID_Y":536000.0,"SPACING_M":500},"geometry":{"type":"Point","coordinates":[-117.61654126248845,49.516974935438874]}},{"type":"Feature","properties":{"GRID_ID":56,"GRID_X":1606000.0,"GRID_Y":536500.0,"SPACING_M":500},"geometry":{"type":"Point","coordinates":[-117.61572586077328,49.52144168282063]}},{"type":"Feature","properties":{"GRID_ID":57,"GRID_X":1606000.0,"GRID_Y":537000.0,"SPACING_M":500},"geometry":{"type":"Point","coordinates":[-117.61491030116818,49.52590839506798]}},{"type":"Feature","properties":{"GRID_ID":58,"GRID_X":1606000.0,"GRID_Y":537500.0,"SPACING_M":500},"geometry":{"type":"Point","coordinates":[-117.61409458362742,49.53037507219921]}},{"type":"Feature","properties":{"GRID_ID":59,"GRID_X":1606000.0,"GRID_Y":538000.0,"SPACING_M":500},"geometry":{"type":"Point","coordinates":[-117.61327870810538,49.53484171423316]}},{"type":"Feature","properties":{"GRID_ID":60,"GRID_X":1606000.0,"GRID_Y":538500.0,"SPACING_M":500},"geometry":{"type":"Point","coordinates":[-117.61246267455637,49.53930832118834]}},{"type":"Feature","properties":{"GRID_ID":61,"GRID_X":1606000.0,"GRID_Y":539000.0,"SPACING_M":500},"geometry":{"type":"Point","coordinates":[-117.61164648293469,49.543774893083246]}},{"type":"Feature","properties":{"GRID_ID":62,"GRID_X":1606000.0,"GRID_Y":539500.0,"SPACING_M":500},"geometry":{"type":"Point","coordinates":[-117.61083013319463,49.54824142993659]}},{"type":"Feature","properties":{"GRID_ID":63,"GRID_X":1606000.0,"GRID_Y":540000.0,"SPACING_M":500},"geometry":{"type":"Point","coordinates":[-117.61001362529039,49.55270793176693]}},{"type":"Feature","properties":{"GRID_ID":64,"GRID_X":1606000.0,"GRID_Y":540500.0,"SPACING_M":500},"geometry":{"type":"Point","coordinates":[-117.60919695917633,49.55717439859278]}},{"type":"Feature","properties":{"GRID_ID":65,"GRID_X":1606000.0,"GRID_Y":541000.0,"SPACING_M":500},"geometry":{"type":"Point","coordinates":[-117.60838013480661,49.56164083043292]}},{"type":"Feature","properties":{"GRID_ID":66,"GRID_X":1606000.0,"GRID_Y":541500.0,"SPACING_M":500},"geometry":{"type":"Point","coordinates":[-117.60756315213544,49.566107227305814]}},{"type":"Feature","properties":{"GRID_ID":67,"GRID_X":1606000.0,"GRID_Y":542000.0,"SPACING_M":500},"geometry":{"type":"Point","coordinates":[-117.60674601111705,49.570573589230115]}},{"type":"Feature","properties":{"GRID_ID":68,"GRID_X":1606000.0,"GRID_Y":542500.0,"SPACING_M":500},"geometry":{"type":"Point","coordinates":[-117.60592871170556,49.5750399162245]}},{"type":"Feature","properties":{"GRID_ID":69,"GRID_X":1606000.0,"GRID_Y":543000.0,"SPACING_M":500},"geometry":{"type":"Point","coordinates":[-117.6051112538552,49.57950620830749]}},{"type":"Feature","properties":{"GRID_ID":70,"GRID_X":1606000.0,"GRID_Y":543500.0,"SPACING_M":500},"geometry":{"type":"Point","coordinates":[-117.60429363752007,49.583972465497745]}},{"type":"Feature","properties":{"GRID_ID":71,"GRID_X":1606000.0,"GRID_Y":544000.0,"SPACING_M":500},"geometry":{"type":"Point","coordinates":[-117.6034758626543,49.588438687813834]}},{"type":"Feature","properties":{"GRID_ID":72,"GRID_X":1606500.0,"GRID_Y":534500.0,"SPACING_M":500},"geometry":{"type":"Point","coordinates":[-117.6121360055501,49.50304295043794]}},{"type":"Feature","properties":{"GRID_ID":73,"GRID_X":1606500.0,"GRID_Y":535000.0,"SPACING_M":500},"geometry":{"type":"Point","coordinates":[-117.61132042363316,49.50750975535479]}},{"type":"Feature","properties":{"GRID_ID":74,"GRID_X":1606500.0,"GRID_Y":535500.0,"SPACING_M":500},"geometry":{"type":"Point","coordinates":[-117.61050468384019,49.51197652506979]}},{"type":"Feature","properties":{"GRID_ID":75,"GRID_X":1606500.0,"GRID_Y":536000.0,"SPACING_M":500},"geometry":{"type":"Point","coordinates":[-117.60968878612556,49.51644325960142]}},{"type":"Feature","properties":{"GRID_ID":76,"GRID_X":1606500.0,"GRID_Y":536500.0,"SPACING_M":500},"geometry":{"type":"Point","coordinates":[-117.60887273044362,49.52090995896827]}},{"type":"Feature","properties":{"GRID_ID":77,"GRID_X":1606500.0,"GRID_Y":537000.0,"SPACING_M":500},"geometry":{"type":"Point","coordinates":[-117.60805651674875,49.525376623189004]}},{"type":"Feature","properties":{"GRID_ID":78,"GRID_X":1606500.0,"GRID_Y":537500.0,"SPACING_M":500},"geometry":{"type":"Point","coordinates":[-117.60724014499519,49.529843252282056]}},{"type":"Feature","properties":{"GRID_ID":79,"GRID_X":1606500.0,"GRID_Y":538000.0,"SPACING_M":500},"geometry":{"type":"Point","coordinates":[-117.6064236151373,49.53430984626609]}},{"type":"Feature","properties":{"GRID_ID":80,"GRID_X":1606500.0,"GRID_Y":538500.0,"SPACING_M":500},"geometry":{"type":"Point","coordinates":[-117.60560692712934,49.538776405159695]}},{"type":"Feature","properties":{"GRID_ID":81,"GRID_X":1606500.0,"GRID_Y":539000.0,"SPACING_M":500},"geometry":{"type":"Point","coordinates":[-117.6047900809256,49.54324292898141]}},{"type":"Feature","properties":{"GRID_ID":82,"GRID_X":1606500.0,"GRID_Y":539500.0,"SPACING_M":500},"geometry":{"type":"Point","coordinates":[-117.6039730764803,49.54770941774992]}},{"type":"Feature","properties":{"GRID_ID":83,"GRID_X":1606500.0,"GRID_Y":540000.0,"SPACING_M":500},"geometry":{"type":"Point","coordinates":[-117.60315591374768,49.552175871483726]}},{"type":"Feature","properties":{"GRID_ID":84,"GRID_X":1606500.0,"GRID_Y":540500.0,"SPACING_M":500},"geometry":{"type":"Point","coordinates":[-117.60233859268196,49.55664229020145]}},{"type":"Feature","properties":{"GRID_ID":85,"GRID_X":1606500.0,"GRID_Y":541000.0,"SPACING_M":500},"geometry":{"type":"Point","coordinates":[-117.60152111323734,49.56110867392176]}},{"type":"Feature","properties":{"GRID_ID":86,"GRID_X":1606500.0,"GRID_Y":541500.0,"SPACING_M":500},"geometry":{"type":"Point","coordinates":[-117.60070347536796,49.565575022663104]}},{"type":"Feature","properties":{"GRID_ID":87,"GRID_X":1606500.0,"GRID_Y":542000.0,"SPACING_M":500},"geometry":{"type":"Point","coordinates":[-117.59988567902803,49.57004133644425]}},{"type":"Feature","properties":{"GRID_ID":88,"GRID_X":1606500.0,"GRID_Y":542500.0,"SPACING_M":500},"geometry":{"type":"Point","coordinates":[-117.59906772417166,49.57450761528372]}},{"type":"Feature","properties":{"GRID_ID":89,"GRID_X":1606500.0,"GRID_Y":543000.0,"SPACING_M":500},"geometry":{"type":"Point","coordinates":[-117.598249610753,49.578973859200154]}},{"type":"Feature","properties":{"GRID_ID":90,"GRID_X":1606500.0,"GRID_Y":543500.0,"SPACING_M":500},"geometry":{"type":"Point","coordinates":[-117.59743133872612,49.58344006821208]}},{"type":"Feature","properties":{"GRID_ID":91,"GRID_X":1606500.0,"GRID_Y":544000.0,"SPACING_M":500},"geometry":{"type":"Point","coordinates":[-117.59661290804516,49.58790624233828]}},{"type":"Feature","properties":{"GRID_ID":92,"GRID_X":1606500.0,"GRID_Y":544500.0,"SPACING_M":500},"geometry":{"type":"Point","coordinates":[-117.59579431866418,49.59237238159725]}},{"type":"Feature","properties":{"GRID_ID":93,"GRID_X":1607000.0,"GRID_Y":534000.0,"SPACING_M":500},"geometry":{"type":"Point","coordinates":[-117.60610172569649,49.49804419378307]}},{"type":"Feature","properties":{"GRID_ID":94,"GRID_X":1607000.0,"GRID_Y":534500.0,"SPACING_M":500},"geometry":{"type":"Point","coordinates":[-117.6052856481804,49.50251098591434]}},{"type":"Feature","properties":{"GRID_ID":95,"GRID_X":1607000.0,"GRID_Y":535000.0,"SPACING_M":500},"geometry":{"type":"Point","coordinates":[-117.60446941271104,49.50697774281353]}},{"type":"Feature","properties":{"GRID_ID":96,"GRID_X":1607000.0,"GRID_Y":535500.0,"SPACING_M":500},"geometry":{"type":"Point","coordinates":[-117.6036530192428,49.511444464499206]}},{"type":"Feature","properties":{"GRID_ID":97,"GRID_X":1607000.0,"GRID_Y":536000.0,"SPACING_M":500},"geometry":{"type":"Point","coordinates":[-117.60283646772999,49.51591115098986]}},{"type":"Feature","properties":{"GRID_ID":98,"GRID_X":1607000.0,"GRID_Y":536500.0,"SPACING_M":500},"geometry":{"type":"Point","coordinates":[-117.60201975812694,49.52037780230414]}},{"type":"Feature","properties":{"GRID_ID":99,"GRID_X":1607000.0,"GRID_Y":537000.0,"SPACING_M":500},"geometry":{"type":"Point","coordinates":[-117.60120289038794,49.524844418460624]}},{"type":"Feature","properties":{"GRID_ID":100,"GRID_X":1607000.0,"GRID_Y":537500.0,"SPACING_M":500},"geometry":{"type":"Point","coordinates":[-117.60038586446731,49.52931099947776]}},{"type":"Feature","properties":{"GRID_ID":101,"GRID_X":1607000.0,"GRID_Y":538000.0,"SPACING_M":500},"geometry":{"type":"Point","coordinates":[-117.59956868031928,49.533777545374264]}},{"type":"Feature","properties":{"GRID_ID":102,"GRID_X":1607000.0,"GRID_Y":538500.0,"SPACING_M":500},"geometry":{"type":"Point","coordinates":[-117.59875133789812,49.538244056168665]}},{"type":"Feature","properties":{"GRID_ID":103,"GRID_X":1607000.0,"GRID_Y":539000.0,"SPACING_M":500},"geometry":{"type":"Point","coordinates":[-117.59793383715805,49.54271053187953]}},{"type":"Feature","properties":{"GRID_ID":104,"GRID_X":1607000.0,"GRID_Y":539500.0,"SPACING_M":500},"geometry":{"type":"Point","coordinates":[-117.59711617805331,49.547176972525484]}},{"type":"Feature","properties":{"GRID_ID":105,"GRID_X":1607000.0,"GRID_Y":540000.0,"SPACING_M":500},"geometry":{"type":"Point","coordinates":[-117.59629836053807,49.5516433781251]}},{"type":"Feature","properties":{"GRID_ID":106,"GRID_X":1607000.0,"GRID_Y":540500.0,"SPACING_M":500},"geometry":{"type":"Point","coordinates":[-117.5954803845665,49.55610974869689]}},{"type":"Feature","properties":{"GRID_ID":107,"GRID_X":1607000.0,"GRID_Y":541000.0,"SPACING_M":500},"geometry":{"type":"Point","coordinates":[-117.59466225009277,49.56057608425959]}},{"type":"Feature","properties":{"GRID_ID":108,"GRID_X":1607000.0,"GRID_Y":541500.0,"SPACING_M":500},"geometry":{"type":"Point","coordinates":[-117.59384395707103,49.56504238483172]}},{"type":"Feature","properties":{"GRID_ID":109,"GRID_X":1607000.0,"GRID_Y":542000.0,"SPACING_M":500},"geometry":{"type":"Point","coordinates":[-117.59302550545542,49.56950865043188]}},{"type":"Feature","properties":{"GRID_ID":110,"GRID_X":1607000.0,"GRID_Y":542500.0,"SPACING_M":500},"geometry":{"type":"Point","coordinates":[-117.59220689520005,49.5739748810787]}},{"type":"Feature","properties":{"GRID_ID":111,"GRID_X":1607000.0,"GRID_Y":543000.0,"SPACING_M":500},"geometry":{"type":"Point","coordinates":[-117.59138812625896,49.57844107679079]}},{"type":"Feature","properties":{"GRID_ID":112,"GRID_X":1607000.0,"GRID_Y":543500.0,"SPACING_M":500},"geometry":{"type":"Point","coordinates":[-117.59056919858631,49.582907237586745]}},{"type":"Feature","properties":{"GRID_ID":113,"GRID_X":1607000.0,"GRID_Y":544000.0,"SPACING_M":500},"geometry":{"type":"Point","coordinates":[-117.58975011213604,49.58737336348519]}},{"type":"Feature","properties":{"GRID_ID":114,"GRID_X":1607000.0,"GRID_Y":544500.0,"SPACING_M":500},"geometry":{"type":"Point","coordinates":[-117.5889308668623,49.5918394545047]}},{"type":"Feature","properties":{"GRID_ID":115,"GRID_X":1607000.0,"GRID_Y":545000.0,"SPACING_M":500},"geometry":{"type":"Point","coordinates":[-117.58811146271906,49.59630551066397]}},{"type":"Feature","properties":{"GRID_ID":116,"GRID_X":1607500.0,"GRID_Y":533500.0,"SPACING_M":500},"geometry":{"type":"Point","coordinates":[-117.60006875253362,49.49304506530595]}},{"type":"Feature","properties":{"GRID_ID":117,"GRID_X":1607500.0,"GRID_Y":534000.0,"SPACING_M":500},"geometry":{"type":"Point","coordinates":[-117.59925217966399,49.49751184465586]}},{"type":"Feature","properties":{"GRID_ID":118,"GRID_X":1607500.0,"GRID_Y":534500.0,"SPACING_M":500},"geometry":{"type":"Point","coordinates":[-117.59843544876394,49.50197858874353]}},{"type":"Feature","properties":{"GRID_ID":119,"GRID_X":1607500.0,"GRID_Y":535000.0,"SPACING_M":500},"geometry":{"type":"Point","coordinates":[-117.5976185597878,49.506445297587426]}},{"type":"Feature","properties":{"GRID_ID":120,"GRID_X":1607500.0,"GRID_Y":535500.0,"SPACING_M":500},"geometry":{"type":"Point","coordinates":[-117.59680151268995,49.510911971206156]}},{"type":"Feature","properties":{"GRID_ID":121,"GRID_X":1607500.0,"GRID_Y":536000.0,"SPACING_M":500},"geometry":{"type":"Point","coordinates":[-117.59598430742464,49.51537860961826]}},{"type":"Feature","properties":{"GRID_ID":122,"GRID_X":1607500.0,"GRID_Y":536500.0,"SPACING_M":500},"geometry":{"type":"Point","coordinates":[-117.59516694394617,49.51984521284227]}},{"type":"Feature","properties":{"GRID_ID":123,"GRID_X":1607500.0,"GRID_Y":537000.0,"SPACING_M":500},"geometry":{"type":"Point","coordinates":[-117.59434942220882,49.524311780896795]}},{"type":"Feature","properties":{"GRID_ID":124,"GRID_X":1607500.0,"GRID_Y":537500.0,"SPACING_M":500},"geometry":{"type":"Point","coordinates":[-117.59353174216682,49.52877831380044]}},{"type":"Feature","properties":{"GRID_ID":125,"GRID_X":1607500.0,"GRID_Y":538000.0,"SPACING_M":500},"geometry":{"type":"Point","coordinates":[-117.59271390377441,49.53324481157169]}},{"type":"Feature","properties":{"GRID_ID":126,"GRID_X":1607500.0,"GRID_Y":538500.0,"SPACING_M":500},"geometry":{"type":"Point","coordinates":[-117.5918959069858,49.53771127422921]}},{"type":"Feature","properties":{"GRID_ID":127,"GRID_X":1607500.0,"GRID_Y":539000.0,"SPACING_M":500},"geometry":{"type":"Point","coordinates":[-117.59107775175522,49.542177701791516]}},{"type":"Feature","properties":{"GRID_ID":128,"GRID_X":1607500.0,"GRID_Y":539500.0,"SPACING_M":500},"geometry":{"type":"Point","coordinates":[-117.5902594380368,49.54664409427724]}},{"type":"Feature","properties":{"GRID_ID":129,"GRID_X":1607500.0,"GRID_Y":540000.0,"SPACING_M":500},"geometry":{"type":"Point","coordinates":[-117.58944096578476,49.551110451704865]}},{"type":"Feature","properties":{"GRID_ID":130,"GRID_X":1607500.0,"GRID_Y":540500.0,"SPACING_M":500},"geometry":{"type":"Point","coordinates":[-117.58862233495319,49.55557677409308]}},{"type":"Feature","properties":{"GRID_ID":131,"GRID_X":1607500.0,"GRID_Y":541000.0,"SPACING_M":500},"geometry":{"type":"Point","coordinates":[-117.58780354549623,49.560043061460476]}},{"type":"Feature","properties":{"GRID_ID":132,"GRID_X":1607500.0,"GRID_Y":541500.0,"SPACING_M":500},"geometry":{"type":"Point","coordinates":[-117.58698459736802,49.56450931382561]}},{"type":"Feature","properties":{"GRID_ID":133,"GRID_X":1607500.0,"GRID_Y":542000.0,"SPACING_M":500},"geometry":{"type":"Point","coordinates":[-117.58616549052262,49.56897553120706]}},{"type":"Feature","properties":{"GRID_ID":134,"GRID_X":1607500.0,"GRID_Y":542500.0,"SPACING_M":500},"geometry":{"type":"Point","coordinates":[-117.5853462249141,49.57344171362346]}},{"type":"Feature","properties":{"GRID_ID":135,"GRID_X":1607500.0,"GRID_Y":543000.0,"SPACING_M":500},"geometry":{"type":"Point","coordinates":[-117.58452680049655,49.5779078610935]}},{"type":"Feature","properties":{"GRID_ID":136,"GRID_X":1607500.0,"GRID_Y":543500.0,"SPACING_M":500},"geometry":{"type":"Point","coordinates":[-117.58370721722402,49.58237397363565]}},{"type":"Feature","properties":{"GRID_ID":137,"GRID_X":1607500.0,"GRID_Y":544000.0,"SPACING_M":500},"geometry":{"type":"Point","coordinates":[-117.58288747505046,49.58684005126853]}},{"type":"Feature","properties":{"GRID_ID":138,"GRID_X":1607500.0,"GRID_Y":544500.0,"SPACING_M":500},"geometry":{"type":"Point","coordinates":[-117.58206757392995,49.591306094010775]}},{"type":"Feature","properties":{"GRID_ID":139,"GRID_X":1607500.0,"GRID_Y":545000.0,"SPACING_M":500},"geometry":{"type":"Point","coordinates":[-117.58124751381641,49.595772101881145]}},{"type":"Feature","properties":{"GRID_ID":140,"GRID_X":1607500.0,"GRID_Y":545500.0,"SPACING_M":500},"geometry":{"type":"Point","coordinates":[-117.58042729466383,49.60023807489805]}},{"type":"Feature","properties":{"GRID_ID":141,"GRID_X":1608000.0,"GRID_Y":533000.0,"SPACING_M":500},"geometry":{"type":"Point","coordinates":[-117.59403708572472,49.48804556507977]}},{"type":"Feature","properties":{"GRID_ID":142,"GRID_X":1608000.0,"GRID_Y":533500.0,"SPACING_M":500},"geometry":{"type":"Point","coordinates":[-117.59322001774703,49.49251233165257]}},{"type":"Feature","properties":{"GRID_ID":143,"GRID_X":1608000.0,"GRID_Y":534000.0,"SPACING_M":500},"geometry":{"type":"Point","coordinates":[-117.59240279166185,49.49697906293295]}},{"type":"Feature","properties":{"GRID_ID":144,"GRID_X":1608000.0,"GRID_Y":534500.0,"SPACING_M":500},"geometry":{"type":"Point","coordinates":[-117.59158540742352,49.50144575893934]}},{"type":"Feature","properties":{"GRID_ID":145,"GRID_X":1608000.0,"GRID_Y":535000.0,"SPACING_M":500},"geometry":{"type":"Point","coordinates":[-117.59076786498632,49.50591241969034]}},{"type":"Feature","properties":{"GRID_ID":146,"GRID_X":1608000.0,"GRID_Y":535500.0,"SPACING_M":500},"geometry":{"type":"Point","coordinates":[-117.58995016430455,49.510379045204516]}},{"type":"Feature","properties":{"GRID_ID":147,"GRID_X":1608000.0,"GRID_Y":536000.0,"SPACING_M":500},"geometry":{"type":"Point","coordinates":[-117.58913230533246,49.51484563550035]}},{"type":"Feature","properties":{"GRID_ID":148,"GRID_X":1608000.0,"GRID_Y":536500.0,"SPACING_M":500},"geometry":{"type":"Point","coordinates":[-117.58831428802428,49.5193121905965]}},{"type":"Feature","properties":{"GRID_ID":149,"GRID_X":1608000.0,"GRID_Y":537000.0,"SPACING_M":500},"geometry":{"type":"Point","coordinates":[-117.5874961123343,49.52377871051149]}},{"type":"Feature","properties":{"GRID_ID":150,"GRID_X":1608000.0,"GRID_Y":537500.0,"SPACING_M":500},"geometry":{"type":"Point","coordinates":[-117.58667777821672,49.52824519526394]}},{"type":"Feature","properties":{"GRID_ID":151,"GRID_X":1608000.0,"GRID_Y":538000.0,"SPACING_M":500},"geometry":{"type":"Point","coordinates":[-117.58585928562572,49.53271164487229]}},{"type":"Feature","properties":{"GRID_ID":152,"GRID_X":1608000.0,"GRID_Y":538500.0,"SPACING_M":500},"geometry":{"type":"Point","coordinates":[-117.5850406345155,49.537178059355206]}},{"type":"Feature","properties":{"GRID_ID":153,"GRID_X":1608000.0,"GRID_Y":539000.0,"SPACING_M":500},"geometry":{"type":"Point","coordinates":[-117.58422182484018,49.54164443873127]}},{"type":"Feature","properties":{"GRID_ID":154,"GRID_X":1608000.0,"GRID_Y":539500.0,"SPACING_M":500},"geometry":{"type":"Point","coordinates":[-117.58340285655396,49.54611078301899]}},{"type":"Feature","properties":{"GRID_ID":155,"GRID_X":1608000.0,"GRID_Y":540000.0,"SPACING_M":500},"geometry":{"type":"Point","coordinates":[-117.58258372961095,49.55057709223703]}},{"type":"Feature","properties":{"GRID_ID":156,"GRID_X":1608000.0,"GRID_Y":540500.0,"SPACING_M":500},"geometry":{"type":"Point","coordinates":[-117.58176444396526,49.555043366403915]}},{"type":"Feature","properties":{"GRID_ID":157,"GRID_X":1608000.0,"GRID_Y":541000.0,"SPACING_M":500},"geometry":{"type":"Point","coordinates":[-117.58094499957096,49.55950960553829]}},{"type":"Feature","properties":{"GRID_ID":158,"GRID_X":1608000.0,"GRID_Y":541500.0,"SPACING_M":500},"geometry":{"type":"Point","coordinates":[-117.58012539638214,49.56397580965867]}},{"type":"Feature","properties":{"GRID_ID":159,"GRID_X":1608000.0,"GRID_Y":542000.0,"SPACING_M":500},"geometry":{"type":"Point","coordinates":[-117.57930563435289,49.5684419787837]}},{"type":"Feature","properties":{"GRID_ID":160,"GRID_X":1608000.0,"GRID_Y":542500.0,"SPACING_M":500},"geometry":{"type":"Point","coordinates":[-117.57848571343722,49.57290811293203]}},{"type":"Feature","properties":{"GRID_ID":161,"GRID_X":1608000.0,"GRID_Y":543000.0,"SPACING_M":500},"geometry":{"type":"Point","coordinates":[-117.57766563358916,49.577374212122166]}},{"type":"Feature","properties":{"GRID_ID":162,"GRID_X":1608000.0,"GRID_Y":543500.0,"SPACING_M":500},"geometry":{"type":"Point","coordinates":[-117.5768453947627,49.58184027637273]}},{"type":"Feature","properties":{"GRID_ID":163,"GRID_X":1608000.0,"GRID_Y":544000.0,"SPACING_M":500},"geometry":{"type":"Point","coordinates":[-117.57602499691183,49.58630630570233]}},{"type":"Feature","properties":{"GRID_ID":164,"GRID_X":1608000.0,"GRID_Y":544500.0,"SPACING_M":500},"geometry":{"type":"Point","coordinates":[-117.57520443999056,49.59077230012959]}},{"type":"Feature","properties":{"GRID_ID":165,"GRID_X":1608000.0,"GRID_Y":545000.0,"SPACING_M":500},"geometry":{"type":"Point","coordinates":[-117.57438372395279,49.59523825967316]}},{"type":"Feature","properties":{"GRID_ID":166,"GRID_X":1608000.0,"GRID_Y":545500.0,"SPACING_M":500},"geometry":{"type":"Point","coordinates":[-117.57356284875247,49.59970418435162]}},{"type":"Feature","properties":{"GRID_ID":167,"GRID_X":1608000.0,"GRID_Y":546000.0,"SPACING_M":500},"geometry":{"type":"Point","coordinates":[-117.57274181434352,49.604170074183614]}},{"type":"Feature","properties":{"GRID_ID":168,"GRID_X":1608500.0,"GRID_Y":532500.0,"SPACING_M":500},"geometry":{"type":"Point","coordinates":[-117.58800672493304,49.48304569317776]}},{"type":"Feature","properties":{"GRID_ID":169,"GRID_X":1608500.0,"GRID_Y":533000.0,"SPACING_M":500},"geometry":{"type":"Point","coordinates":[-117.58718916209274,49.48751244697773]}},{"type":"Feature","properties":{"GRID_ID":170,"GRID_X":1608500.0,"GRID_Y":533500.0,"SPACING_M":500},"geometry":{"type":"Point","coordinates":[-117.58637144106794,49.49197916545501]}},{"type":"Feature","properties":{"GRID_ID":171,"GRID_X":1608500.0,"GRID_Y":534000.0,"SPACING_M":500},"geometry":{"type":"Point","coordinates":[-117.58555356181292,49.49644584862822]}},{"type":"Feature","properties":{"GRID_ID":172,"GRID_X":1608500.0,"GRID_Y":534500.0,"SPACING_M":500},"geometry":{"type":"Point","coordinates":[-117.58473552428201,49.50091249651574]}},{"type":"Feature","properties":{"GRID_ID":173,"GRID_X":1608500.0,"GRID_Y":535000.0,"SPACING_M":500},"geometry":{"type":"Point","coordinates":[-117.58391732842942,49.505379109136186]}},{"type":"Feature","properties":{"GRID_ID":174,"GRID_X":1608500.0,"GRID_Y":535500.0,"SPACING_M":500},"geometry":{"type":"Point","coordinates":[-117.58309897420945,49.50984568650819]}},{"type":"Feature","properties":{"GRID_ID":175,"GRID_X":1608500.0,"GRID_Y":536000.0,"SPACING_M":500},"geometry":{"type":"Point","coordinates":[-117.58228046157632,49.51431222865024]}},{"type":"Feature","properties":{"GRID_ID":176,"GRID_X":1608500.0,"GRID_Y":536500.0,"SPACING_M":500},"geometry":{"type":"Point","coordinates":[-117.58146179048424,49.518778735580874]}},{"type":"Feature","properties":{"GRID_ID":177,"GRID_X":1608500.0,"GRID_Y":537000.0,"SPACING_M":500},"geometry":{"type":"Point","coordinates":[-117.5806429608874,49.523245207318645]}},{"type":"Feature","properties":{"GRID_ID":178,"GRID_X":1608500.0,"GRID_Y":537500.0,"SPACING_M":500},"geometry":{"type":"Point","coordinates":[-117.57982397274003,49.52771164388221]}},{"type":"Feature","properties":{"GRID_ID":179,"GRID_X":1608500.0,"GRID_Y":538000.0,"SPACING_M":500},"geometry":{"type":"Point","coordinates":[-117.57900482599625,49.53217804529002]}},{"type":"Feature","properties":{"GRID_ID":180,"GRID_X":1608500.0,"GRID_Y":538500.0,"SPACING_M":500},"geometry":{"type":"Point","coordinates":[-117.57818552061022,49.53664441156066]}},{"type":"Feature","properties":{"GRID_ID":181,"GRID_X":1608500.0,"GRID_Y":539000.0,"SPACING_M":500},"geometry":{"type":"Point","coordinates":[-117.57736605653606,49.5411107427128]}},{"type":"Feature","properties":{"GRID_ID":182,"GRID_X":1608500.0,"GRID_Y":539500.0,"SPACING_M":500},"geometry":{"type":"Point","coordinates":[-117.57654643372788,49.54557703876492]}},{"type":"Feature","properties":{"GRID_ID":183,"GRID_X":1608500.0,"GRID_Y":540000.0,"SPACING_M":500},"geometry":{"type":"Point","coordinates":[-117.57572665213982,49.550043299735606]}},{"type":"Feature","properties":{"GRID_ID":184,"GRID_X":1608500.0,"GRID_Y":540500.0,"SPACING_M":500},"geometry":{"type":"Point","coordinates":[-117.5749067117259,49.55450952564344]}},{"type":"Feature","properties":{"GRID_ID":185,"GRID_X":1608500.0,"GRID_Y":541000.0,"SPACING_M":500},"geometry":{"type":"Point","coordinates":[-117.5740866124402,49.55897571650705]}},{"type":"Feature","properties":{"GRID_ID":186,"GRID_X":1608500.0,"GRID_Y":541500.0,"SPACING_M":500},"geometry":{"type":"Point","coordinates":[-117.57326635423675,49.56344187234503]}},{"type":"Feature","properties":{"GRID_ID":187,"GRID_X":1608500.0,"GRID_Y":542000.0,"SPACING_M":500},"geometry":{"type":"Point","coordinates":[-117.57244593706959,49.56790799317593]}},{"type":"Feature","properties":{"GRID_ID":188,"GRID_X":1608500.0,"GRID_Y":542500.0,"SPACING_M":500},"geometry":{"type":"Point","coordinates":[-117.57162536089274,49.57237407901833]}},{"type":"Feature","properties":{"GRID_ID":189,"GRID_X":1608500.0,"GRID_Y":543000.0,"SPACING_M":500},"geometry":{"type":"Point","coordinates":[-117.57080462566013,49.57684012989088]}},{"type":"Feature","properties":{"GRID_ID":190,"GRID_X":1608500.0,"GRID_Y":543500.0,"SPACING_M":500},"geometry":{"type":"Point","coordinates":[-117.5699837313258,49.58130614581206]}},{"type":"Feature","properties":{"GRID_ID":191,"GRID_X":1608500.0,"GRID_Y":544000.0,"SPACING_M":500},"geometry":{"type":"Point","coordinates":[-117.56916267784366,49.58577212680066]}},{"type":"Feature","properties":{"GRID_ID":192,"GRID_X":1608500.0,"GRID_Y":544500.0,"SPACING_M":500},"geometry":{"type":"Point","coordinates":[-117.56834146516765,49.5902380728752]}},{"type":"Feature","properties":{"GRID_ID":193,"GRID_X":1608500.0,"GRID_Y":545000.0,"SPACING_M":500},"geometry":{"type":"Point","coordinates":[-117.5675200932517,49.59470398405419]}},{"type":"Feature","properties":{"GRID_ID":194,"GRID_X":1608500.0,"GRID_Y":545500.0,"SPACING_M":500},"geometry":{"type":"Point","coordinates":[-117.5666985620497,49.599169860356426]}},{"type":"Feature","properties":{"GRID_ID":195,"GRID_X":1608500.0,"GRID_Y":546000.0,"SPACING_M":500},"geometry":{"type":"Point","coordinates":[-117.56587687151556,49.6036357018003]}},{"type":"Feature","properties":{"GRID_ID":196,"GRID_X":1608500.0,"GRID_Y":546500.0,"SPACING_M":500},"geometry":{"type":"Point","coordinates":[-117.5650550216031,49.60810150840465]}},{"type":"Feature","properties":{"GRID_ID":197,"GRID_X":1609000.0,"GRID_Y":532000.0,"SPACING_M":500},"geometry":{"type":"Point","coordinates":[-117.58197766982194,49.47804544967315]}},{"type":"Feature","properties":{"GRID_ID":198,"GRID_X":1609000.0,"GRID_Y":532500.0,"SPACING_M":500},"geometry":{"type":"Point","coordinates":[-117.58115961236435,49.48251219070455]}},{"type":"Feature","properties":{"GRID_ID":199,"GRID_X":1609000.0,"GRID_Y":533000.0,"SPACING_M":500},"geometry":{"type":"Point","coordinates":[-117.58034139664528,49.48697889638306]}},{"type":"Feature","properties":{"GRID_ID":200,"GRID_X":1609000.0,"GRID_Y":533500.0,"SPACING_M":500},"geometry":{"type":"Point","coordinates":[-117.57952302261903,49.49144556672721]}},{"type":"Feature","properties":{"GRID_ID":201,"GRID_X":1609000.0,"GRID_Y":534000.0,"SPACING_M":500},"geometry":{"type":"Point","coordinates":[-117.57870449023989,49.49591220175559]}},{"type":"Feature","properties":{"GRID_ID":202,"GRID_X":1609000.0,"GRID_Y":534500.0,"SPACING_M":500},"geometry":{"type":"Point","coordinates":[-117.57788579946211,49.500378801486654]}},{"type":"Feature","properties":{"GRID_ID":203,"GRID_X":1609000.0,"GRID_Y":535000.0,"SPACING_M":500},"geometry":{"type":"Point","coordinates":[-117.57706695023991,49.50484536593905]}},{"type":"Feature","properties":{"GRID_ID":204,"GRID_X":1609000.0,"GRID_Y":535500.0,"SPACING_M":500},"geometry":{"type":"Point","coordinates":[-117.57624794252752,49.5093118951312]}},{"type":"Feature","properties":{"GRID_ID":205,"GRID_X":1609000.0,"GRID_Y":536000.0,"SPACING_M":500},"geometry":{"type":"Point","coordinates":[-117.57542877627913,49.51377838908178]}},{"type":"Feature","properties":{"GRID_ID":206,"GRID_X":1609000.0,"GRID_Y":536500.0,"SPACING_M":500},"geometry":{"type":"Point","coordinates":[-117.57460945144892,49.51824484780928]}},{"type":"Feature","properties":{"GRID_ID":207,"GRID_X":1609000.0,"GRID_Y":537000.0,"SPACING_M":500},"geometry":{"type":"Point","coordinates":[-117.57378996799109,49.522711271332206]}},{"type":"Feature","properties":{"GRID_ID":208,"GRID_X":1609000.0,"GRID_Y":537500.0,"SPACING_M":500},"geometry":{"type":"Point","coordinates":[-117.57297032585974,49.52717765966925]}},{"type":"Feature","properties":{"GRID_ID":209,"GRID_X":1609000.0,"GRID_Y":538000.0,"SPACING_M":500},"geometry":{"type":"Point","coordinates":[-117.57215052500904,49.531644012838804]}},{"type":"Feature","properties":{"GRID_ID":210,"GRID_X":1609000.0,"GRID_Y":538500.0,"SPACING_M":500},"geometry":{"type":"Point","coordinates":[-117.57133056539307,49.53611033085954]}},{"type":"Feature","properties":{"GRID_ID":211,"GRID_X":1609000.0,"GRID_Y":539000.0,"SPACING_M":500},"geometry":{"type":"Point","coordinates":[-117.57051044696594,49.54057661375008]}},{"type":"Feature","properties":{"GRID_ID":212,"GRID_X":1609000.0,"GRID_Y":539500.0,"SPACING_M":500},"geometry":{"type":"Point","coordinates":[-117.56969016968173,49.54504286152887]}},{"type":"Feature","properties":{"GRID_ID":213,"GRID_X":1609000.0,"GRID_Y":540000.0,"SPACING_M":500},"geometry":{"type":"Point","coordinates":[-117.56886973349452,49.549509074214505]}},{"type":"Feature","properties":{"GRID_ID":214,"GRID_X":1609000.0,"GRID_Y":540500.0,"SPACING_M":500},"geometry":{"type":"Point","coordinates":[-117.56804913835832,49.553975251825676]}},{"type":"Feature","properties":{"GRID_ID":215,"GRID_X":1609000.0,"GRID_Y":541000.0,"SPACING_M":500},"geometry":{"type":"Point","coordinates":[-117.56722838422716,49.55844139438084]}},{"type":"Feature","properties":{"GRID_ID":216,"GRID_X":1609000.0,"GRID_Y":541500.0,"SPACING_M":500},"geometry":{"type":"Point","coordinates":[-117.56640747105506,49.562907501898636]}},{"type":"Feature","properties":{"GRID_ID":217,"GRID_X":1609000.0,"GRID_Y":542000.0,"SPACING_M":500},"geometry":{"type":"Point","coordinates":[-117.565586398796,49.56737357439763]}},{"type":"Feature","properties":{"GRID_ID":218,"GRID_X":1609000.0,"GRID_Y":542500.0,"SPACING_M":500},"geometry":{"type":"Point","coordinates":[-117.56476516740395,49.571839611896415]}},{"type":"Feature","properties":{"GRID_ID":219,"GRID_X":1609000.0,"GRID_Y":543000.0,"SPACING_M":500},"geometry":{"type":"Point","coordinates":[-117.56394377683286,49.57630561441359]}},{"type":"Feature","properties":{"GRID_ID":220,"GRID_X":1609000.0,"GRID_Y":543500.0,"SPACING_M":500},"geometry":{"type":"Point","coordinates":[-117.56312222703669,49.580771581967774]}},{"type":"Feature","properties":{"GRID_ID":221,"GRID_X":1609000.0,"GRID_Y":544000.0,"SPACING_M":500},"geometry":{"type":"Point","coordinates":[-117.56230051796933,49.585237514577486]}},{"type":"Feature","properties":{"GRID_ID":222,"GRID_X":1609000.0,"GRID_Y":544500.0,"SPACING_M":500},"geometry":{"type":"Point","coordinates":[-117.56147864958469,49.58970341226141]}},{"type":"Feature","properties":{"GRID_ID":223,"GRID_X":1609000.0,"GRID_Y":545000.0,"SPACING_M":500},"geometry":{"type":"Point","coordinates":[-117.56065662183667,49.59416927503811]}},{"type":"Feature","properties":{"GRID_ID":224,"GRID_X":1609000.0,"GRID_Y":545500.0,"SPACING_M":500},"geometry":{"type":"Point","coordinates":[-117.55983443467913,49.59863510292627]}},{"type":"Feature","properties":{"GRID_ID":225,"GRID_X":1609000.0,"GRID_Y":546000.0,"SPACING_M":500},"geometry":{"type":"Point","coordinates":[-117.55901208806587,49.60310089594443]}},{"type":"Feature","properties":{"GRID_ID":226,"GRID_X":1609000.0,"GRID_Y":546500.0,"SPACING_M":500},"geometry":{"type":"Point","coordinates":[-117.5581895819508,49.60756665411117]}},{"type":"Feature","properties":{"GRID_ID":227,"GRID_X":1609000.0,"GRID_Y":547000.0,"SPACING_M":500},"geometry":{"type":"Point","coordinates":[-117.55736691628766,49.61203237744518]}},{"type":"Feature","properties":{"GRID_ID":228,"GRID_X":1609000.0,"GRID_Y":547500.0,"SPACING_M":500},"geometry":{"type":"Point","coordinates":[-117.55654409103032,49.61649806596514]}},{"type":"Feature","properties":{"GRID_ID":229,"GRID_X":1609500.0,"GRID_Y":531500.0,"SPACING_M":500},"geometry":{"type":"Point","coordinates":[-117.57594992005485,49.47304483463901]}},{"type":"Feature","properties":{"GRID_ID":230,"GRID_X":1609500.0,"GRID_Y":532000.0,"SPACING_M":500},"geometry":{"type":"Point","coordinates":[-117.57513136822516,49.477511562906066]}},{"type":"Feature","properties":{"GRID_ID":231,"GRID_X":1609500.0,"GRID_Y":532500.0,"SPACING_M":500},"geometry":{"type":"Point","coordinates":[-117.57431265805708,49.4819782557901]}},{"type":"Feature","properties":{"GRID_ID":232,"GRID_X":1609500.0,"GRID_Y":533000.0,"SPACING_M":500},"geometry":{"type":"Point","coordinates":[-117.57349378950498,49.486444913309604]}},{"type":"Feature","properties":{"GRID_ID":233,"GRID_X":1609500.0,"GRID_Y":533500.0,"SPACING_M":500},"geometry":{"type":"Point","coordinates":[-117.57267476252302,49.490911535483]}},{"type":"Feature","properties":{"GRID_ID":234,"GRID_X":1609500.0,"GRID_Y":534000.0,"SPACING_M":500},"geometry":{"type":"Point","coordinates":[-117.5718555770655,49.49537812232902]}},{"type":"Feature","properties":{"GRID_ID":235,"GRID_X":1609500.0,"GRID_Y":534500.0,"SPACING_M":500},"geometry":{"type":"Point","coordinates":[-117.57103623308663,49.49984467386606]}},{"type":"Feature","properties":{"GRID_ID":236,"GRID_X":1609500.0,"GRID_Y":535000.0,"SPACING_M":500},"geometry":{"type":"Point","coordinates":[-117.5702167305406,49.504311190112695]}},{"type":"Feature","properties":{"GRID_ID":237,"GRID_X":1609500.0,"GRID_Y":535500.0,"SPACING_M":500},"geometry":{"type":"Point","coordinates":[-117.56939706938155,49.50877767108747]}},{"type":"Feature","properties":{"GRID_ID":238,"GRID_X":1609500.0,"GRID_Y":536000.0,"SPACING_M":500},"geometry":{"type":"Point","coordinates":[-117.56857724956373,49.51324411680895]}},{"type":"Feature","properties":{"GRID_ID":239,"GRID_X":1609500.0,"GRID_Y":536500.0,"SPACING_M":500},"geometry":{"type":"Point","coordinates":[-117.56775727104124,49.51771052729563]}},{"type":"Feature","properties":{"GRID_ID":240,"GRID_X":1609500.0,"GRID_Y":537000.0,"SPACING_M":500},"geometry":{"type":"Point","coordinates":[-117.56693713376825,49.522176902566144]}},{"type":"Feature","properties":{"GRID_ID":241,"GRID_X":1609500.0,"GRID_Y":537500.0,"SPACING_M":500},"geometry":{"type":"Point","coordinates":[-117.56611683769881,49.52664324263899]}},{"type":"Feature","properties":{"GRID_ID":242,"GRID_X":1609500.0,"GRID_Y":538000.0,"SPACING_M":500},"geometry":{"type":"Point","coordinates":[-117.56529638278707,49.53110954753268]}},{"type":"Feature","properties":{"GRID_ID":243,"GRID_X":1609500.0,"GRID_Y":538500.0,"SPACING_M":500},"geometry":{"type":"Point","coordinates":[-117.56447576898708,49.53557581726587]}},{"type":"Feature","properties":{"GRID_ID":244,"GRID_X":1609500.0,"GRID_Y":539000.0,"SPACING_M":500},"geometry":{"type":"Point","coordinates":[-117.56365499625291,49.54004205185707]}},{"type":"Feature","properties":{"GRID_ID":245,"GRID_X":1609500.0,"GRID_Y":539500.0,"SPACING_M":500},"geometry":{"type":"Point","coordinates":[-117.56283406453862,49.54450825132487]}},{"type":"Feature","properties":{"GRID_ID":246,"GRID_X":1609500.0,"GRID_Y":540000.0,"SPACING_M":500},"geometry":{"type":"Point","coordinates":[-117.56201297379822,49.54897441568782]}},{"type":"Feature","properties":{"GRID_ID":247,"GRID_X":1609500.0,"GRID_Y":540500.0,"SPACING_M":500},"geometry":{"type":"Point","coordinates":[-117.56119172398571,49.553440544964545]}},{"type":"Feature","properties":{"GRID_ID":248,"GRID_X":1609500.0,"GRID_Y":541000.0,"SPACING_M":500},"geometry":{"type":"Point","coordinates":[-117.56037031505508,49.55790663917356]}},{"type":"Feature","properties":{"GRID_ID":249,"GRID_X":1609500.0,"GRID_Y":541500.0,"SPACING_M":500},"geometry":{"type":"Point","coordinates":[-117.55954874696033,49.56237269833349]}},{"type":"Feature","properties":{"GRID_ID":250,"GRID_X":1609500.0,"GRID_Y":542000.0,"SPACING_M":500},"geometry":{"type":"Point","coordinates":[-117.5587270196554,49.56683872246284]}},{"type":"Feature","properties":{"GRID_ID":251,"GRID_X":1609500.0,"GRID_Y":542500.0,"SPACING_M":500},"geometry":{"type":"Point","coordinates":[-117.55790513309421,49.571304711580304]}},{"type":"Feature","properties":{"GRID_ID":252,"GRID_X":1609500.0,"GRID_Y":543000.0,"SPACING_M":500},"geometry":{"type":"Point","coordinates":[-117.5570830872307,49.575770665704376]}},{"type":"Feature","properties":{"GRID_ID":253,"GRID_X":1609500.0,"GRID_Y":543500.0,"SPACING_M":500},"geometry":{"type":"Point","coordinates":[-117.55626088201873,49.58023658485365]}},{"type":"Feature","properties":{"GRID_ID":254,"GRID_X":1609500.0,"GRID_Y":544000.0,"SPACING_M":500},"geometry":{"type":"Point","coordinates":[-117.55543851741227,49.58470246904683]}},{"type":"Feature","properties":{"GRID_ID":255,"GRID_X":1609500.0,"GRID_Y":544500.0,"SPACING_M":500},"geometry":{"type":"Point","coordinates":[-117.55461599336513,49.589168318302434]}},{"type":"Feature","properties":{"GRID_ID":256,"GRID_X":1609500.0,"GRID_Y":545000.0,"SPACING_M":500},"geometry":{"type":"Point","coordinates":[-117.55379330983116,49.59363413263908]}},{"type":"Feature","properties":{"GRID_ID":257,"GRID_X":1609500.0,"GRID_Y":545500.0,"SPACING_M":500},"geometry":{"type":"Point","coordinates":[-117.5529704667642,49.598099912075355]}},{"type":"Feature","properties":{"GRID_ID":258,"GRID_X":1609500.0,"GRID_Y":546000.0,"SPACING_M":500},"geometry":{"type":"Point","coordinates":[-117.55214746411805,49.6025656566299]}},{"type":"Feature","properties":{"GRID_ID":259,"GRID_X":1609500.0,"GRID_Y":546500.0,"SPACING_M":500},"geometry":{"type":"Point","coordinates":[-117.55132430184653,49.60703136632133]}},{"type":"Feature","properties":{"GRID_ID":260,"GRID_X":1609500.0,"GRID_Y":547000.0,"SPACING_M":500},"geometry":{"type":"Point","coordinates":[-117.5505009799034,49.6114970411682]}},{"type":"Feature","properties":{"GRID_ID":261,"GRID_X":1609500.0,"GRID_Y":547500.0,"SPACING_M":500},"geometry":{"type":"Point","coordinates":[-117.54967749824243,49.61596268118915]}},{"type":"Feature","properties":{"GRID_ID":262,"GRID_X":1609500.0,"GRID_Y":548000.0,"SPACING_M":500},"geometry":{"type":"Point","coordinates":[-117.54885385681735,49.620428286402884]}},{"type":"Feature","properties":{"GRID_ID":263,"GRID_X":1610000.0,"GRID_Y":531000.0,"SPACING_M":500},"geometry":{"type":"Point","coordinates":[-117.56992347529528,49.46804384814835]}},{"type":"Feature","properties":{"GRID_ID":264,"GRID_X":1610000.0,"GRID_Y":531500.0,"SPACING_M":500},"geometry":{"type":"Point","coordinates":[-117.56910442933858,49.47251056365539]}},{"type":"Feature","properties":{"GRID_ID":265,"GRID_X":1610000.0,"GRID_Y":532000.0,"SPACING_M":500},"geometry":{"type":"Point","coordinates":[-117.56828522496671,49.47697724374927]}},{"type":"Feature","properties":{"GRID_ID":266,"GRID_X":1610000.0,"GRID_Y":532500.0,"SPACING_M":500},"geometry":{"type":"Point","coordinates":[-117.56746586213391,49.48144388844834]}},{"type":"Feature","properties":{"GRID_ID":267,"GRID_X":1610000.0,"GRID_Y":533000.0,"SPACING_M":500},"geometry":{"type":"Point","coordinates":[-117.56664634079449,49.485910497771215]}},{"type":"Feature","properties":{"GRID_ID":268,"GRID_X":1610000.0,"GRID_Y":533500.0,"SPACING_M":500},"geometry":{"type":"Point","coordinates":[-117.5658266609026,49.49037707173638]}},{"type":"Feature","properties":{"GRID_ID":269,"GRID_X":1610000.0,"GRID_Y":534000.0,"SPACING_M":500},"geometry":{"type":"Point","coordinates":[-117.56500682241247,49.49484361036244]}},{"type":"Feature","properties":{"GRID_ID":270,"GRID_X":1610000.0,"GRID_Y":534500.0,"SPACING_M":500},"geometry":{"type":"Point","coordinates":[-117.5641868252783,49.49931011366787]}},{"type":"Feature","properties":{"GRID_ID":271,"GRID_X":1610000.0,"GRID_Y":535000.0,"SPACING_M":500},"geometry":{"type":"Point","coordinates":[-117.56336666945424,49.503776581671175]}},{"type":"Feature","properties":{"GRID_ID":272,"GRID_X":1610000.0,"GRID_Y":535500.0,"SPACING_M":500},"geometry":{"type":"Point","coordinates":[-117.56254635489441,49.50824301439099]}},{"type":"Feature","properties":{"GRID_ID":273,"GRID_X":1610000.0,"GRID_Y":536000.0,"SPACING_M":500},"geometry":{"type":"Point","coordinates":[-117.56172588155302,49.512709411845734]}},{"type":"Feature","properties":{"GRID_ID":274,"GRID_X":1610000.0,"GRID_Y":536500.0,"SPACING_M":500},"geometry":{"type":"Point","coordinates":[-117.56090524938409,49.51717577405402]}},{"type":"Feature","properties":{"GRID_ID":275,"GRID_X":1610000.0,"GRID_Y":537000.0,"SPACING_M":500},"geometry":{"type":"Point","coordinates":[-117.56008445834182,49.52164210103443]}},{"type":"Feature","properties":{"GRID_ID":276,"GRID_X":1610000.0,"GRID_Y":537500.0,"SPACING_M":500},"geometry":{"type":"Point","coordinates":[-117.5592635083802,49.52610839280544]}},{"type":"Feature","properties":{"GRID_ID":277,"GRID_X":1610000.0,"GRID_Y":538000.0,"SPACING_M":500},"geometry":{"type":"Point","coordinates":[-117.55844239945333,49.53057464938561]}},{"type":"Feature","properties":{"GRID_ID":278,"GRID_X":1610000.0,"GRID_Y":538500.0,"SPACING_M":500},"geometry":{"type":"Point","coordinates":[-117.55762113151528,49.53504087079359]}},{"type":"Feature","properties":{"GRID_ID":279,"GRID_X":1610000.0,"GRID_Y":539000.0,"SPACING_M":500},"geometry":{"type":"Point","coordinates":[-117.55679970452002,49.53950705704782]}},{"type":"Feature","properties":{"GRID_ID":280,"GRID_X":1610000.0,"GRID_Y":539500.0,"SPACING_M":500},"geometry":{"type":"Point","coordinates":[-117.5559781184216,49.54397320816699]}},{"type":"Feature","properties":{"GRID_ID":281,"GRID_X":1610000.0,"GRID_Y":540000.0,"SPACING_M":500},"geometry":{"type":"Point","coordinates":[-117.555156373174,49.5484393241696]}},{"type":"Feature","properties":{"GRID_ID":282,"GRID_X":1610000.0,"GRID_Y":540500.0,"SPACING_M":500},"geometry":{"type":"Point","coordinates":[-117.5543344687312,49.55290540507412]}},{"type":"Feature","properties":{"GRID_ID":283,"GRID_X":1610000.0,"GRID_Y":541000.0,"SPACING_M":500},"geometry":{"type":"Point","coordinates":[-117.55351240504713,49.55737145089926]}},{"type":"Feature","properties":{"GRID_ID":284,"GRID_X":1610000.0,"GRID_Y":541500.0,"SPACING_M":500},"geometry":{"type":"Point","coordinates":[-117.55269018207578,49.561837461663565]}},{"type":"Feature","properties":{"GRID_ID":285,"GRID_X":1610000.0,"GRID_Y":542000.0,"SPACING_M":500},"geometry":{"type":"Point","coordinates":[-117.551867799771,49.56630343738558]}},{"type":"Feature","properties":{"GRID_ID":286,"GRID_X":1610000.0,"GRID_Y":542500.0,"SPACING_M":500},"geometry":{"type":"Point","coordinates":[-117.55104525808677,49.570769378083966]}},{"type":"Feature","properties":{"GRID_ID":287,"GRID_X":1610000.0,"GRID_Y":543000.0,"SPACING_M":500},"geometry":{"type":"Point","coordinates":[-117.55022255697693,49.57523528377723]}},{"type":"Feature","properties":{"GRID_ID":288,"GRID_X":1610000.0,"GRID_Y":543500.0,"SPACING_M":500},"geometry":{"type":"Point","coordinates":[-117.54939969639535,49.57970115448397]}},{"type":"Feature","properties":{"GRID_ID":289,"GRID_X":1610000.0,"GRID_Y":544000.0,"SPACING_M":500},"geometry":{"type":"Point","coordinates":[-117.54857667629591,49.5841669902228]}},{"type":"Feature","properties":{"GRID_ID":290,"GRID_X":1610000.0,"GRID_Y":544500.0,"SPACING_M":500},"geometry":{"type":"Point","coordinates":[-117.54775349663238,49.58863279101228]}},{"type":"Feature","properties":{"GRID_ID":291,"GRID_X":1610000.0,"GRID_Y":545000.0,"SPACING_M":500},"geometry":{"type":"Point","coordinates":[-117.54693015735864,49.5930985568711]}},{"type":"Feature","properties":{"GRID_ID":292,"GRID_X":1610000.0,"GRID_Y":545500.0,"SPACING_M":500},"geometry":{"type":"Point","coordinates":[-117.54610665842847,49.59756428781777]}},{"type":"Feature","properties":{"GRID_ID":293,"GRID_X":1610000.0,"GRID_Y":546000.0,"SPACING_M":500},"geometry":{"type":"Point","coordinates":[-117.54528299979562,49.60202998387093]}},{"type":"Feature","properties":{"GRID_ID":294,"GRID_X":1610000.0,"GRID_Y":546500.0,"SPACING_M":500},"geometry":{"type":"Point","coordinates":[-117.54445918141387,49.60649564504914]}},{"type":"Feature","properties":{"GRID_ID":295,"GRID_X":1610000.0,"GRID_Y":547000.0,"SPACING_M":500},"geometry":{"type":"Point","coordinates":[-117.54363520323697,49.610961271371075]}},{"type":"Feature","properties":{"GRID_ID":296,"GRID_X":1610000.0,"GRID_Y":547500.0,"SPACING_M":500},"geometry":{"type":"Point","coordinates":[-117.54281106521863,49.615426862855315]}},{"type":"Feature","properties":{"GRID_ID":297,"GRID_X":1610000.0,"GRID_Y":548000.0,"SPACING_M":500},"geometry":{"type":"Point","coordinates":[-117.5419867673126,49.61989241952048]}},{"type":"Feature","properties":{"GRID_ID":298,"GRID_X":1610000.0,"GRID_Y":548500.0,"SPACING_M":500},"geometry":{"type":"Point","coordinates":[-117.54116230947253,49.624357941385185]}},{"type":"Feature","properties":{"GRID_ID":299,"GRID_X":1610500.0,"GRID_Y":530500.0,"SPACING_M":500},"geometry":{"type":"Point","coordinates":[-117.56389833520679,49.46304249027429]}},{"type":"Feature","properties":{"GRID_ID":300,"GRID_X":1610500.0,"GRID_Y":531000.0,"SPACING_M":500},"geometry":{"type":"Point","coordinates":[-117.56307879536807,49.46750919302569]}},{"type":"Feature","properties":{"GRID_ID":301,"GRID_X":1610500.0,"GRID_Y":531500.0,"SPACING_M":500},"geometry":{"type":"Point","coordinates":[-117.56225909703744,49.47197586033366]}},{"type":"Feature","properties":{"GRID_ID":302,"GRID_X":1610500.0,"GRID_Y":532000.0,"SPACING_M":500},"geometry":{"type":"Point","coordinates":[-117.56143924016916,49.47644249221662]}},{"type":"Feature","properties":{"GRID_ID":303,"GRID_X":1610500.0,"GRID_Y":532500.0,"SPACING_M":500},"geometry":{"type":"Point","coordinates":[-117.56061922471743,49.48090908869327]}},{"type":"Feature","properties":{"GRID_ID":304,"GRID_X":1610500.0,"GRID_Y":533000.0,"SPACING_M":500},"geometry":{"type":"Point","coordinates":[-117.55979905063646,49.48537564978199]}},{"type":"Feature","properties":{"GRID_ID":305,"GRID_X":1610500.0,"GRID_Y":533500.0,"SPACING_M":500},"geometry":{"type":"Point","coordinates":[-117.55897871788042,49.489842175501394]}},{"type":"Feature","properties":{"GRID_ID":306,"GRID_X":1610500.0,"GRID_Y":534000.0,"SPACING_M":500},"geometry":{"type":"Point","coordinates":[-117.55815822640349,49.49430866586987]}},{"type":"Feature","properties":{"GRID_ID":307,"GRID_X":1610500.0,"GRID_Y":534500.0,"SPACING_M":500},"geometry":{"type":"Point","coordinates":[-117.55733757615987,49.498775120906046]}},{"type":"Feature","properties":{"GRID_ID":308,"GRID_X":1610500.0,"GRID_Y":535000.0,"SPACING_M":500},"geometry":{"type":"Point","coordinates":[-117.55651676710362,49.503241540628466]}},{"type":"Feature","properties":{"GRID_ID":309,"GRID_X":1610500.0,"GRID_Y":535500.0,"SPACING_M":500},"geometry":{"type":"Point","coordinates":[-117.55569579918888,49.50770792505561]}},{"type":"Feature","properties":{"GRID_ID":310,"GRID_X":1610500.0,"GRID_Y":536000.0,"SPACING_M":500},"geometry":{"type":"Point","coordinates":[-117.55487467236976,49.51217427420609]}},{"type":"Feature","properties":{"GRID_ID":311,"GRID_X":1610500.0,"GRID_Y":536500.0,"SPACING_M":500},"geometry":{"type":"Point","coordinates":[-117.55405338660036,49.51664058809841]}},{"type":"Feature","properties":{"GRID_ID":312,"GRID_X":1610500.0,"GRID_Y":537000.0,"SPACING_M":500},"geometry":{"type":"Point","coordinates":[-117.5532319418347,49.521106866751055]}},{"type":"Feature","properties":{"GRID_ID":313,"GRID_X":1610500.0,"GRID_Y":537500.0,"SPACING_M":500},"geometry":{"type":"Point","coordinates":[-117.55241033802683,49.52557311018265]}},{"type":"Feature","properties":{"GRID_ID":314,"GRID_X":1610500.0,"GRID_Y":538000.0,"SPACING_M":500},"geometry":{"type":"Point","coordinates":[-117.55158857513081,49.530039318411674]}},{"type":"Feature","properties":{"GRID_ID":315,"GRID_X":1610500.0,"GRID_Y":538500.0,"SPACING_M":500},"geometry":{"type":"Point","coordinates":[-117.55076665310064,49.53450549145671]}},{"type":"Feature","properties":{"GRID_ID":316,"GRID_X":1610500.0,"GRID_Y":539000.0,"SPACING_M":500},"geometry":{"type":"Point","coordinates":[-117.5499445718903,49.53897162933634]}},{"type":"Feature","properties":{"GRID_ID":317,"GRID_X":1610500.0,"GRID_Y":539500.0,"SPACING_M":500},"geometry":{"type":"Point","coordinates":[-117.54912233145375,49.54343773206918]}},{"type":"Feature","properties":{"GRID_ID":318,"GRID_X":1610500.0,"GRID_Y":540000.0,"SPACING_M":500},"geometry":{"type":"Point","coordinates":[-117.54829993174498,49.54790379967364]}},{"type":"Feature","properties":{"GRID_ID":319,"GRID_X":1610500.0,"GRID_Y":540500.0,"SPACING_M":500},"geometry":{"type":"Point","coordinates":[-117.54747737271792,49.55236983216838]}},{"type":"Feature","properties":{"GRID_ID":320,"GRID_X":1610500.0,"GRID_Y":541000.0,"SPACING_M":500},"geometry":{"type":"Point","coordinates":[-117.5466546543265,49.556835829571966]}},{"type":"Feature","properties":{"GRID_ID":321,"GRID_X":1610500.0,"GRID_Y":541500.0,"SPACING_M":500},"geometry":{"type":"Point","coordinates":[-117.54583177652461,49.56130179190297]}},{"type":"Feature","properties":{"GRID_ID":322,"GRID_X":1610500.0,"GRID_Y":542000.0,"SPACING_M":500},"geometry":{"type":"Point","coordinates":[-117.54500873926612,49.56576771917999]}},{"type":"Feature","properties":{"GRID_ID":323,"GRID_X":1610500.0,"GRID_Y":542500.0,"SPACING_M":500},"geometry":{"type":"Point","coordinates":[-117.54418554250495,49.57023361142157]}},{"type":"Feature","properties":{"GRID_ID":324,"GRID_X":1610500.0,"GRID_Y":543000.0,"SPACING_M":500},"geometry":{"type":"Point","coordinates":[-117.54336218619488,49.574699468646216]}},{"type":"Feature","properties":{"GRID_ID":325,"GRID_X":1610500.0,"GRID_Y":543500.0,"SPACING_M":500},"geometry":{"type":"Point","coordinates":[-117.54253867028984,49.5791652908727]}},{"type":"Feature","properties":{"GRID_ID":326,"GRID_X":1610500.0,"GRID_Y":544000.0,"SPACING_M":500},"geometry":{"type":"Point","coordinates":[-117.54171499474357,49.58363107811939]}},{"type":"Feature","properties":{"GRID_ID":327,"GRID_X":1610500.0,"GRID_Y":544500.0,"SPACING_M":500},"geometry":{"type":"Point","coordinates":[-117.54089115950988,49.58809683040504]}},{"type":"Feature","properties":{"GRID_ID":328,"GRID_X":1610500.0,"GRID_Y":545000.0,"SPACING_M":500},"geometry":{"type":"Point","coordinates":[-117.54006716454256,49.59256254774818]}},{"type":"Feature","properties":{"GRID_ID":329,"GRID_X":1610500.0,"GRID_Y":545500.0,"SPACING_M":500},"geometry":{"type":"Point","coordinates":[-117.53924300979537,49.59702823016748]}},{"type":"Feature","properties":{"GRID_ID":330,"GRID_X":1610500.0,"GRID_Y":546000.0,"SPACING_M":500},"geometry":{"type":"Point","coordinates":[-117.53841869522208,49.60149387768147]}},{"type":"Feature","properties":{"GRID_ID":331,"GRID_X":1610500.0,"GRID_Y":546500.0,"SPACING_M":500},"geometry":{"type":"Point","coordinates":[-117.53759422077637,49.60595949030866]}},{"type":"Feature","properties":{"GRID_ID":332,"GRID_X":1610500.0,"GRID_Y":547000.0,"SPACING_M":500},"geometry":{"type":"Point","coordinates":[-117.53676958641198,49.610425068067826]}},{"type":"Feature","properties":{"GRID_ID":333,"GRID_X":1610500.0,"GRID_Y":547500.0,"SPACING_M":500},"geometry":{"type":"Point","coordinates":[-117.5359447920826,49.61489061097758]}},{"type":"Feature","properties":{"GRID_ID":334,"GRID_X":1610500.0,"GRID_Y":548000.0,"SPACING_M":500},"geometry":{"type":"Point","coordinates":[-117.53511983774187,49.619356119056384]}},{"type":"Feature","properties":{"GRID_ID":335,"GRID_X":1611000.0,"GRID_Y":529500.0,"SPACING_M":500},"geometry":{"type":"Point","coordinates":[-117.55869437440599,49.45357403559759]}},{"type":"Feature","properties":{"GRID_ID":336,"GRID_X":1611000.0,"GRID_Y":530000.0,"SPACING_M":500},"geometry":{"type":"Point","coordinates":[-117.55787449945299,49.458040761089755]}},{"type":"Feature","properties":{"GRID_ID":337,"GRID_X":1611000.0,"GRID_Y":530500.0,"SPACING_M":500},"geometry":{"type":"Point","coordinates":[-117.55705446597716,49.46250745108979]}},{"type":"Feature","properties":{"GRID_ID":338,"GRID_X":1611000.0,"GRID_Y":531000.0,"SPACING_M":500},"geometry":{"type":"Point","coordinates":[-117.55623427393273,49.46697410561621]}},{"type":"Feature","properties":{"GRID_ID":339,"GRID_X":1611000.0,"GRID_Y":531500.0,"SPACING_M":500},"geometry":{"type":"Point","coordinates":[-117.55541392327397,49.471440724687525]}},{"type":"Feature","properties":{"GRID_ID":340,"GRID_X":1611000.0,"GRID_Y":532000.0,"SPACING_M":500},"geometry":{"type":"Point","coordinates":[-117.55459341395505,49.47590730832225]}},{"type":"Feature","properties":{"GRID_ID":341,"GRID_X":1611000.0,"GRID_Y":532500.0,"SPACING_M":500},"geometry":{"type":"Point","coordinates":[-117.55377274593015,49.48037385653884]}},{"type":"Feature","properties":{"GRID_ID":342,"GRID_X":1611000.0,"GRID_Y":533000.0,"SPACING_M":500},"geometry":{"type":"Point","coordinates":[-117.55295191915346,49.48484036935585]}},{"type":"Feature","properties":{"GRID_ID":343,"GRID_X":1611000.0,"GRID_Y":533500.0,"SPACING_M":500},"geometry":{"type":"Point","coordinates":[-117.55213093357912,49.48930684679185]}},{"type":"Feature","properties":{"GRID_ID":344,"GRID_X":1611000.0,"GRID_Y":534000.0,"SPACING_M":500},"geometry":{"type":"Point","coordinates":[-117.55130978916127,49.493773288865235]}},{"type":"Feature","properties":{"GRID_ID":345,"GRID_X":1611000.0,"GRID_Y":534500.0,"SPACING_M":500},"geometry":{"type":"Point","coordinates":[-117.55048848585402,49.498239695594634]}},{"type":"Feature","properties":{"GRID_ID":346,"GRID_X":1611000.0,"GRID_Y":535000.0,"SPACING_M":500},"geometry":{"type":"Point","coordinates":[-117.54966702361146,49.502706066998556]}},{"type":"Feature","properties":{"GRID_ID":347,"GRID_X":1611000.0,"GRID_Y":535500.0,"SPACING_M":500},"geometry":{"type":"Point","coordinates":[-117.54884540238773,49.50717240309551]}},{"type":"Feature","properties":{"GRID_ID":348,"GRID_X":1611000.0,"GRID_Y":536000.0,"SPACING_M":500},"geometry":{"type":"Point","coordinates":[-117.54802362213684,49.51163870390407]}},{"type":"Feature","properties":{"GRID_ID":349,"GRID_X":1611000.0,"GRID_Y":536500.0,"SPACING_M":500},"geometry":{"type":"Point","coordinates":[-117.54720168281284,49.51610496944271]}},{"type":"Feature","properties":{"GRID_ID":350,"GRID_X":1611000.0,"GRID_Y":537000.0,"SPACING_M":500},"geometry":{"type":"Point","coordinates":[-117.54637958436977,49.52057119973003]}},{"type":"Feature","properties":{"GRID_ID":351,"GRID_X":1611000.0,"GRID_Y":537500.0,"SPACING_M":500},"geometry":{"type":"Point","coordinates":[-117.54555732676164,49.52503739478452]}},{"type":"Feature","properties":{"GRID_ID":352,"GRID_X":1611000.0,"GRID_Y":538000.0,"SPACING_M":500},"geometry":{"type":"Point","coordinates":[-117.54473490994243,49.529503554624725]}},{"type":"Feature","properties":{"GRID_ID":353,"GRID_X":1611000.0,"GRID_Y":538500.0,"SPACING_M":500},"geometry":{"type":"Point","coordinates":[-117.54391233386615,49.5339696792693]}},{"type":"Feature","properties":{"GRID_ID":354,"GRID_X":1611000.0,"GRID_Y":539000.0,"SPACING_M":500},"geometry":{"type":"Point","coordinates":[-117.54308959848674,49.53843576873663]}},{"type":"Feature","properties":{"GRID_ID":355,"GRID_X":1611000.0,"GRID_Y":539500.0,"SPACING_M":500},"geometry":{"type":"Point","coordinates":[-117.54226670375812,49.54290182304542]}},{"type":"Feature","properties":{"GRID_ID":356,"GRID_X":1611000.0,"GRID_Y":540000.0,"SPACING_M":500},"geometry":{"type":"Point","coordinates":[-117.54144364963425,49.547367842214165]}},{"type":"Feature","properties":{"GRID_ID":357,"GRID_X":1611000.0,"GRID_Y":540500.0,"SPACING_M":500},"geometry":{"type":"Point","coordinates":[-117.54062043606903,49.55183382626144]}},{"type":"Feature","properties":{"GRID_ID":358,"GRID_X":1611000.0,"GRID_Y":541000.0,"SPACING_M":500},"geometry":{"type":"Point","coordinates":[-117.53979706301631,49.55629977520578]}},{"type":"Feature","properties":{"GRID_ID":359,"GRID_X":1611000.0,"GRID_Y":541500.0,"SPACING_M":500},"geometry":{"type":"Point","coordinates":[-117.53897353043001,49.56076568906578]}},{"type":"Feature","properties":{"GRID_ID":360,"GRID_X":1611000.0,"GRID_Y":542000.0,"SPACING_M":500},"geometry":{"type":"Point","coordinates":[-117.53814983826393,49.56523156785996]}},{"type":"Feature","properties":{"GRID_ID":361,"GRID_X":1611000.0,"GRID_Y":542500.0,"SPACING_M":500},"geometry":{"type":"Point","coordinates":[-117.53732598647198,49.569697411607045]}},{"type":"Feature","properties":{"GRID_ID":362,"GRID_X":1611000.0,"GRID_Y":543000.0,"SPACING_M":500},"geometry":{"type":"Point","coordinates":[-117.5365019750079,49.57416322032546]}},{"type":"Feature","properties":{"GRID_ID":363,"GRID_X":1611000.0,"GRID_Y":543500.0,"SPACING_M":500},"geometry":{"type":"Point","coordinates":[-117.53567780382552,49.578628994033814]}},{"type":"Feature","properties":{"GRID_ID":364,"GRID_X":1611000.0,"GRID_Y":544000.0,"SPACING_M":500},"geometry":{"type":"Point","coordinates":[-117.53485347287864,49.58309473275072]}},{"type":"Feature","properties":{"GRID_ID":365,"GRID_X":1611000.0,"GRID_Y":544500.0,"SPACING_M":500},"geometry":{"type":"Point","coordinates":[-117.534028982121,49.58756043649475]}},{"type":"Feature","properties":{"GRID_ID":366,"GRID_X":1611000.0,"GRID_Y":545000.0,"SPACING_M":500},"geometry":{"type":"Point","coordinates":[-117.53320433150633,49.592026105284525]}},{"type":"Feature","properties":{"GRID_ID":367,"GRID_X":1611000.0,"GRID_Y":545500.0,"SPACING_M":500},"geometry":{"type":"Point","coordinates":[-117.5323795209884,49.59649173913862]}},{"type":"Feature","properties":{"GRID_ID":368,"GRID_X":1611000.0,"GRID_Y":546000.0,"SPACING_M":500},"geometry":{"type":"Point","coordinates":[-117.53155455052092,49.60095733807565]}},{"type":"Feature","properties":{"GRID_ID":369,"GRID_X":1611000.0,"GRID_Y":546500.0,"SPACING_M":500},"geometry":{"type":"Point","coordinates":[-117.53072942005754,49.60542290211417]}},{"type":"Feature","properties":{"GRID_ID":370,"GRID_X":1611000.0,"GRID_Y":547000.0,"SPACING_M":500},"geometry":{"type":"Point","coordinates":[-117.52990412955198,49.609888431272736]}},{"type":"Feature","properties":{"GRID_ID":371,"GRID_X":1611000.0,"GRID_Y":547500.0,"SPACING_M":500},"geometry":{"type":"Point","coordinates":[-117.52907867895786,49.614353925570114]}},{"type":"Feature","properties":{"GRID_ID":372,"GRID_X":1611000.0,"GRID_Y":548000.0,"SPACING_M":500},"geometry":{"type":"Point","coordinates":[-117.52825306822884,49.6188193850248]}},{"type":"Feature","properties":{"GRID_ID":373,"GRID_X":1611500.0,"GRID_Y":529000.0,"SPACING_M":500},"geometry":{"type":"Point","coordinates":[-117.5526723359663,49.44857194789238]}},{"type":"Feature","properties":{"GRID_ID":374,"GRID_X":1611500.0,"GRID_Y":529500.0,"SPACING_M":500},"geometry":{"type":"Point","coordinates":[-117.55185196769759,49.453038660667765]}},{"type":"Feature","properties":{"GRID_ID":375,"GRID_X":1611500.0,"GRID_Y":530000.0,"SPACING_M":500},"geometry":{"type":"Point","coordinates":[-117.55103144082946,49.457505337920814]}},{"type":"Feature","properties":{"GRID_ID":376,"GRID_X":1611500.0,"GRID_Y":530500.0,"SPACING_M":500},"geometry":{"type":"Point","coordinates":[-117.5502107553161,49.461971979670004]}},{"type":"Feature","properties":{"GRID_ID":377,"GRID_X":1611500.0,"GRID_Y":531000.0,"SPACING_M":500},"geometry":{"type":"Point","coordinates":[-117.54938991111179,49.466438585933965]}},{"type":"Feature","properties":{"GRID_ID":378,"GRID_X":1611500.0,"GRID_Y":531500.0,"SPACING_M":500},"geometry":{"type":"Point","coordinates":[-117.54856890817065,49.47090515673113]}},{"type":"Feature","properties":{"GRID_ID":379,"GRID_X":1611500.0,"GRID_Y":532000.0,"SPACING_M":500},"geometry":{"type":"Point","coordinates":[-117.54774774644692,49.47537169207995]}},{"type":"Feature","properties":{"GRID_ID":380,"GRID_X":1611500.0,"GRID_Y":532500.0,"SPACING_M":500},"geometry":{"type":"Point","coordinates":[-117.54692642589467,49.47983819199901]}},{"type":"Feature","properties":{"GRID_ID":381,"GRID_X":1611500.0,"GRID_Y":533000.0,"SPACING_M":500},"geometry":{"type":"Point","coordinates":[-117.54610494646809,49.484304656506744]}},{"type":"Feature","properties":{"GRID_ID":382,"GRID_X":1611500.0,"GRID_Y":533500.0,"SPACING_M":500},"geometry":{"type":"Point","coordinates":[-117.54528330812131,49.488771085621764]}},{"type":"Feature","properties":{"GRID_ID":383,"GRID_X":1611500.0,"GRID_Y":534000.0,"SPACING_M":500},"geometry":{"type":"Point","coordinates":[-117.5444615108084,49.4932374793625]}},{"type":"Feature","properties":{"GRID_ID":384,"GRID_X":1611500.0,"GRID_Y":534500.0,"SPACING_M":500},"geometry":{"type":"Point","coordinates":[-117.54363955448348,49.497703837747586]}},{"type":"Feature","properties":{"GRID_ID":385,"GRID_X":1611500.0,"GRID_Y":535000.0,"SPACING_M":500},"geometry":{"type":"Point","coordinates":[-117.54281743910055,49.50217016079539]}},{"type":"Feature","properties":{"GRID_ID":386,"GRID_X":1611500.0,"GRID_Y":535500.0,"SPACING_M":500},"geometry":{"type":"Point","coordinates":[-117.54199516461372,49.506636448524574]}},{"type":"Feature","properties":{"GRID_ID":387,"GRID_X":1611500.0,"GRID_Y":536000.0,"SPACING_M":500},"geometry":{"type":"Point","coordinates":[-117.54117273097698,49.51110270095358]}},{"type":"Feature","properties":{"GRID_ID":388,"GRID_X":1611500.0,"GRID_Y":536500.0,"SPACING_M":500},"geometry":{"type":"Point","coordinates":[-117.54035013814439,49.515568918100996]}},{"type":"Feature","properties":{"GRID_ID":389,"GRID_X":1611500.0,"GRID_Y":537000.0,"SPACING_M":500},"geometry":{"type":"Point","coordinates":[-117.5395273860699,49.52003509998529]}},{"type":"Feature","properties":{"GRID_ID":390,"GRID_X":1611500.0,"GRID_Y":537500.0,"SPACING_M":500},"geometry":{"type":"Point","coordinates":[-117.53870447470749,49.524501246625114]}},{"type":"Feature","properties":{"GRID_ID":391,"GRID_X":1611500.0,"GRID_Y":538000.0,"SPACING_M":500},"geometry":{"type":"Point","coordinates":[-117.53788140401116,49.52896735803894]}},{"type":"Feature","properties":{"GRID_ID":392,"GRID_X":1611500.0,"GRID_Y":538500.0,"SPACING_M":500},"geometry":{"type":"Point","coordinates":[-117.5370581739348,49.53343343424527]}},{"type":"Feature","properties":{"GRID_ID":393,"GRID_X":1611500.0,"GRID_Y":539000.0,"SPACING_M":500},"geometry":{"type":"Point","coordinates":[-117.53623478443238,49.5378994752627]}},{"type":"Feature","properties":{"GRID_ID":394,"GRID_X":1611500.0,"GRID_Y":539500.0,"SPACING_M":500},"geometry":{"type":"Point","coordinates":[-117.53541123545777,49.54236548110987]}},{"type":"Feature","properties":{"GRID_ID":395,"GRID_X":1611500.0,"GRID_Y":540000.0,"SPACING_M":500},"geometry":{"type":"Point","coordinates":[-117.5345875269649,49.54683145180518]}},{"type":"Feature","properties":{"GRID_ID":396,"GRID_X":1611500.0,"GRID_Y":540500.0,"SPACING_M":500},"geometry":{"type":"Point","coordinates":[-117.53376365890759,49.55129738736725]}},{"type":"Feature","properties":{"GRID_ID":397,"GRID_X":1611500.0,"GRID_Y":541000.0,"SPACING_M":500},"geometry":{"type":"Point","coordinates":[-117.53293963123974,49.55576328781466]}},{"type":"Feature","properties":{"GRID_ID":398,"GRID_X":1611500.0,"GRID_Y":541500.0,"SPACING_M":500},"geometry":{"type":"Point","coordinates":[-117.53211544391516,49.56022915316591]}},{"type":"Feature","properties":{"GRID_ID":399,"GRID_X":1611500.0,"GRID_Y":542000.0,"SPACING_M":500},"geometry":{"type":"Point","coordinates":[-117.5312910968877,49.56469498343969]}},{"type":"Feature","properties":{"GRID_ID":400,"GRID_X":1611500.0,"GRID_Y":542500.0,"SPACING_M":500},"geometry":{"type":"Point","coordinates":[-117.53046659011109,49.569160778654506]}},{"type":"Feature","properties":{"GRID_ID":401,"GRID_X":1611500.0,"GRID_Y":543000.0,"SPACING_M":500},"geometry":{"type":"Point","coordinates":[-117.52964192353919,49.57362653882894]}},{"type":"Feature","properties":{"GRID_ID":402,"GRID_X":1611500.0,"GRID_Y":543500.0,"SPACING_M":500},"geometry":{"type":"Point","coordinates":[-117.52881709712574,49.57809226398148]}},{"type":"Feature","properties":{"GRID_ID":403,"GRID_X":1611500.0,"GRID_Y":544000.0,"SPACING_M":500},"geometry":{"type":"Point","coordinates":[-117.52799211082446,49.58255795413083]}},{"type":"Feature","properties":{"GRID_ID":404,"GRID_X":1611500.0,"GRID_Y":544500.0,"SPACING_M":500},"geometry":{"type":"Point","coordinates":[-117.52716696458911,49.58702360929552]}},{"type":"Feature","properties":{"GRID_ID":405,"GRID_X":1611500.0,"GRID_Y":545000.0,"SPACING_M":500},"geometry":{"type":"Point","coordinates":[-117.5263416583734,49.59148922949416]}},{"type":"Feature","properties":{"GRID_ID":406,"GRID_X":1611500.0,"GRID_Y":545500.0,"SPACING_M":500},"geometry":{"type":"Point","coordinates":[-117.52551619213102,49.59595481474529]}},{"type":"Feature","properties":{"GRID_ID":407,"GRID_X":1611500.0,"GRID_Y":546000.0,"SPACING_M":500},"geometry":{"type":"Point","coordinates":[-117.52469056581563,49.600420365067556]}},{"type":"Feature","properties":{"GRID_ID":408,"GRID_X":1611500.0,"GRID_Y":546500.0,"SPACING_M":500},"geometry":{"type":"Point","coordinates":[-117.52386477938092,49.604885880479515]}},{"type":"Feature","properties":{"GRID_ID":409,"GRID_X":1611500.0,"GRID_Y":547000.0,"SPACING_M":500},"geometry":{"type":"Point","coordinates":[-117.5230388327805,49.60935136099978]}},{"type":"Feature","properties":{"GRID_ID":410,"GRID_X":1611500.0,"GRID_Y":547500.0,"SPACING_M":500},"geometry":{"type":"Point","coordinates":[-117.522212725968,49.61381680664698]}},{"type":"Feature","properties":{"GRID_ID":411,"GRID_X":1611500.0,"GRID_Y":548000.0,"SPACING_M":500},"geometry":{"type":"Point","coordinates":[-117.52138645889704,49.61828221743969]}},{"type":"Feature","properties":{"GRID_ID":412,"GRID_X":1612000.0,"GRID_Y":528500.0,"SPACING_M":500},"geometry":{"type":"Point","coordinates":[-117.54665160094419,49.443569489018216]}},{"type":"Feature","properties":{"GRID_ID":413,"GRID_X":1612000.0,"GRID_Y":529000.0,"SPACING_M":500},"geometry":{"type":"Point","coordinates":[-117.54583073960437,49.44803618908109]}},{"type":"Feature","properties":{"GRID_ID":414,"GRID_X":1612000.0,"GRID_Y":529500.0,"SPACING_M":500},"geometry":{"type":"Point","coordinates":[-117.54500971958859,49.452502853591525]}},{"type":"Feature","properties":{"GRID_ID":415,"GRID_X":1612000.0,"GRID_Y":530000.0,"SPACING_M":500},"geometry":{"type":"Point","coordinates":[-117.5441885408511,49.45696948256796]}},{"type":"Feature","properties":{"GRID_ID":416,"GRID_X":1612000.0,"GRID_Y":530500.0,"SPACING_M":500},"geometry":{"type":"Point","coordinates":[-117.54336720334604,49.46143607602893]}},{"type":"Feature","properties":{"GRID_ID":417,"GRID_X":1612000.0,"GRID_Y":531000.0,"SPACING_M":500},"geometry":{"type":"Point","coordinates":[-117.54254570702761,49.46590263399288]}},{"type":"Feature","properties":{"GRID_ID":418,"GRID_X":1612000.0,"GRID_Y":531500.0,"SPACING_M":500},"geometry":{"type":"Point","coordinates":[-117.54172405184995,49.4703691564783]}},{"type":"Feature","properties":{"GRID_ID":419,"GRID_X":1612000.0,"GRID_Y":532000.0,"SPACING_M":500},"geometry":{"type":"Point","coordinates":[-117.54090223776723,49.47483564350377]}},{"type":"Feature","properties":{"GRID_ID":420,"GRID_X":1612000.0,"GRID_Y":532500.0,"SPACING_M":500},"geometry":{"type":"Point","coordinates":[-117.54008026473352,49.47930209508773]}},{"type":"Feature","properties":{"GRID_ID":421,"GRID_X":1612000.0,"GRID_Y":533000.0,"SPACING_M":500},"geometry":{"type":"Point","coordinates":[-117.53925813270298,49.48376851124867]}},{"type":"Feature","properties":{"GRID_ID":422,"GRID_X":1612000.0,"GRID_Y":533500.0,"SPACING_M":500},"geometry":{"type":"Point","coordinates":[-117.53843584162964,49.48823489200516]}},{"type":"Feature","properties":{"GRID_ID":423,"GRID_X":1612000.0,"GRID_Y":534000.0,"SPACING_M":500},"geometry":{"type":"Point","coordinates":[-117.5376133914676,49.49270123737571]}},{"type":"Feature","properties":{"GRID_ID":424,"GRID_X":1612000.0,"GRID_Y":534500.0,"SPACING_M":500},"geometry":{"type":"Point","coordinates":[-117.53679078217088,49.497167547378815]}},{"type":"Feature","properties":{"GRID_ID":425,"GRID_X":1612000.0,"GRID_Y":535000.0,"SPACING_M":500},"geometry":{"type":"Point","coordinates":[-117.53596801369353,49.501633822033]}},{"type":"Feature","properties":{"GRID_ID":426,"GRID_X":1612000.0,"GRID_Y":535500.0,"SPACING_M":500},"geometry":{"type":"Point","coordinates":[-117.53514508598961,49.50610006135681]}},{"type":"Feature","properties":{"GRID_ID":427,"GRID_X":1612000.0,"GRID_Y":536000.0,"SPACING_M":500},"geometry":{"type":"Point","coordinates":[-117.53432199901302,49.510566265368716]}},{"type":"Feature","properties":{"GRID_ID":428,"GRID_X":1612000.0,"GRID_Y":536500.0,"SPACING_M":500},"geometry":{"type":"Point","coordinates":[-117.53349875271782,49.51503243408727]}},{"type":"Feature","properties":{"GRID_ID":429,"GRID_X":1612000.0,"GRID_Y":537000.0,"SPACING_M":500},"geometry":{"type":"Point","coordinates":[-117.53267534705793,49.51949856753099]}},{"type":"Feature","properties":{"GRID_ID":430,"GRID_X":1612000.0,"GRID_Y":537500.0,"SPACING_M":500},"geometry":{"type":"Point","coordinates":[-117.53185178198731,49.52396466571853]}},{"type":"Feature","properties":{"GRID_ID":431,"GRID_X":1612000.0,"GRID_Y":538000.0,"SPACING_M":500},"geometry":{"type":"Point","coordinates":[-117.53102805745986,49.52843072866824]}},{"type":"Feature","properties":{"GRID_ID":432,"GRID_X":1612000.0,"GRID_Y":538500.0,"SPACING_M":500},"geometry":{"type":"Point","coordinates":[-117.53020417342952,49.532896756398756]}},{"type":"Feature","properties":{"GRID_ID":433,"GRID_X":1612000.0,"GRID_Y":539000.0,"SPACING_M":500},"geometry":{"type":"Point","coordinates":[-117.5293801298502,49.537362748928615]}},{"type":"Feature","properties":{"GRID_ID":434,"GRID_X":1612000.0,"GRID_Y":539500.0,"SPACING_M":500},"geometry":{"type":"Point","coordinates":[-117.52855592667571,49.541828706276426]}},{"type":"Feature","properties":{"GRID_ID":435,"GRID_X":1612000.0,"GRID_Y":540000.0,"SPACING_M":500},"geometry":{"type":"Point","coordinates":[-117.52773156385993,49.54629462846066]}},{"type":"Feature","properties":{"GRID_ID":436,"GRID_X":1612000.0,"GRID_Y":540500.0,"SPACING_M":500},"geometry":{"type":"Point","coordinates":[-117.52690704135672,49.55076051549991]}},{"type":"Feature","properties":{"GRID_ID":437,"GRID_X":1612000.0,"GRID_Y":541000.0,"SPACING_M":500},"geometry":{"type":"Point","coordinates":[-117.52608235911988,49.55522636741265]}},{"type":"Feature","properties":{"GRID_ID":438,"GRID_X":1612000.0,"GRID_Y":541500.0,"SPACING_M":500},"geometry":{"type":"Point","coordinates":[-117.52525751710323,49.559692184217596]}},{"type":"Feature","properties":{"GRID_ID":439,"GRID_X":1612000.0,"GRID_Y":542000.0,"SPACING_M":500},"geometry":{"type":"Point","coordinates":[-117.5244325152605,49.56415796593318]}},{"type":"Feature","properties":{"GRID_ID":440,"GRID_X":1612000.0,"GRID_Y":542500.0,"SPACING_M":500},"geometry":{"type":"Point","coordinates":[-117.52360735354553,49.568623712578045]}},{"type":"Feature","properties":{"GRID_ID":441,"GRID_X":1612000.0,"GRID_Y":543000.0,"SPACING_M":500},"geometry":{"type":"Point","coordinates":[-117.52278203191203,49.57308942417073]}},{"type":"Feature","properties":{"GRID_ID":442,"GRID_X":1612000.0,"GRID_Y":543500.0,"SPACING_M":500},"geometry":{"type":"Point","coordinates":[-117.52195655031373,49.577555100729796]}},{"type":"Feature","properties":{"GRID_ID":443,"GRID_X":1612000.0,"GRID_Y":544000.0,"SPACING_M":500},"geometry":{"type":"Point","coordinates":[-117.52113090870435,49.582020742273826]}},{"type":"Feature","properties":{"GRID_ID":444,"GRID_X":1612000.0,"GRID_Y":544500.0,"SPACING_M":500},"geometry":{"type":"Point","coordinates":[-117.5203051070376,49.58648634882143]}},{"type":"Feature","properties":{"GRID_ID":445,"GRID_X":1612000.0,"GRID_Y":545000.0,"SPACING_M":500},"geometry":{"type":"Point","coordinates":[-117.51947914526713,49.590951920391134]}},{"type":"Feature","properties":{"GRID_ID":446,"GRID_X":1612000.0,"GRID_Y":545500.0,"SPACING_M":500},"geometry":{"type":"Point","coordinates":[-117.5186530233466,49.59541745700159]}},{"type":"Feature","properties":{"GRID_ID":447,"GRID_X":1612000.0,"GRID_Y":546000.0,"SPACING_M":500},"geometry":{"type":"Point","coordinates":[-117.51782674122968,49.5998829586713]}},{"type":"Feature","properties":{"GRID_ID":448,"GRID_X":1612000.0,"GRID_Y":546500.0,"SPACING_M":500},"geometry":{"type":"Point","coordinates":[-117.51700029886997,49.60434842541896]}},{"type":"Feature","properties":{"GRID_ID":449,"GRID_X":1612000.0,"GRID_Y":547000.0,"SPACING_M":500},"geometry":{"type":"Point","coordinates":[-117.5161736962211,49.608813857263115]}},{"type":"Feature","properties":{"GRID_ID":450,"GRID_X":1612000.0,"GRID_Y":547500.0,"SPACING_M":500},"geometry":{"type":"Point","coordinates":[-117.51534693323664,49.61327925422239]}},{"type":"Feature","properties":{"GRID_ID":451,"GRID_X":1612500.0,"GRID_Y":528000.0,"SPACING_M":500},"geometry":{"type":"Point","coordinates":[-117.54063216900357,49.43856665904793]}},{"type":"Feature","properties":{"GRID_ID":452,"GRID_X":1612500.0,"GRID_Y":528500.0,"SPACING_M":500},"geometry":{"type":"Point","coordinates":[-117.53981081483717,49.44303334640273]}},{"type":"Feature","properties":{"GRID_ID":453,"GRID_X":1612500.0,"GRID_Y":529000.0,"SPACING_M":500},"geometry":{"type":"Point","coordinates":[-117.53898930191836,49.447499998174905]}},{"type":"Feature","properties":{"GRID_ID":454,"GRID_X":1612500.0,"GRID_Y":529500.0,"SPACING_M":500},"geometry":{"type":"Point","coordinates":[-117.53816763020136,49.451966614382926]}},{"type":"Feature","properties":{"GRID_ID":455,"GRID_X":1612500.0,"GRID_Y":530000.0,"SPACING_M":500},"geometry":{"type":"Point","coordinates":[-117.53734579964028,49.45643319504527]}},{"type":"Feature","properties":{"GRID_ID":456,"GRID_X":1612500.0,"GRID_Y":530500.0,"SPACING_M":500},"geometry":{"type":"Point","coordinates":[-117.53652381018934,49.46089974018043]}},{"type":"Feature","properties":{"GRID_ID":457,"GRID_X":1612500.0,"GRID_Y":531000.0,"SPACING_M":500},"geometry":{"type":"Point","coordinates":[-117.53570166180266,49.46536624980687]}},{"type":"Feature","properties":{"GRID_ID":458,"GRID_X":1612500.0,"GRID_Y":531500.0,"SPACING_M":500},"geometry":{"type":"Point","coordinates":[-117.53487935443434,49.46983272394312]}},{"type":"Feature","properties":{"GRID_ID":459,"GRID_X":1612500.0,"GRID_Y":532000.0,"SPACING_M":500},"geometry":{"type":"Point","coordinates":[-117.53405688803852,49.474299162607636]}},{"type":"Feature","properties":{"GRID_ID":460,"GRID_X":1612500.0,"GRID_Y":532500.0,"SPACING_M":500},"geometry":{"type":"Point","coordinates":[-117.53323426256925,49.47876556581903]}},{"type":"Feature","properties":{"GRID_ID":461,"GRID_X":1612500.0,"GRID_Y":533000.0,"SPACING_M":500},"geometry":{"type":"Point","coordinates":[-117.53241147798062,49.48323193359569]}},{"type":"Feature","properties":{"GRID_ID":462,"GRID_X":1612500.0,"GRID_Y":533500.0,"SPACING_M":500},"geometry":{"type":"Point","coordinates":[-117.53158853422666,49.4876982659561]}},{"type":"Feature","properties":{"GRID_ID":463,"GRID_X":1612500.0,"GRID_Y":534000.0,"SPACING_M":500},"geometry":{"type":"Point","coordinates":[-117.53076543126143,49.4921645629189]}},{"type":"Feature","properties":{"GRID_ID":464,"GRID_X":1612500.0,"GRID_Y":534500.0,"SPACING_M":500},"geometry":{"type":"Point","coordinates":[-117.52994216903892,49.49663082450252]}},{"type":"Feature","properties":{"GRID_ID":465,"GRID_X":1612500.0,"GRID_Y":535000.0,"SPACING_M":500},"geometry":{"type":"Point","coordinates":[-117.52911874751317,49.50109705072539]}},{"type":"Feature","properties":{"GRID_ID":466,"GRID_X":1612500.0,"GRID_Y":535500.0,"SPACING_M":500},"geometry":{"type":"Point","coordinates":[-117.52829516663809,49.50556324160627]}},{"type":"Feature","properties":{"GRID_ID":467,"GRID_X":1612500.0,"GRID_Y":536000.0,"SPACING_M":500},"geometry":{"type":"Point","coordinates":[-117.5274714263677,49.51002939716343]}},{"type":"Feature","properties":{"GRID_ID":468,"GRID_X":1612500.0,"GRID_Y":536500.0,"SPACING_M":500},"geometry":{"type":"Point","coordinates":[-117.52664752665594,49.514495517415604]}},{"type":"Feature","properties":{"GRID_ID":469,"GRID_X":1612500.0,"GRID_Y":537000.0,"SPACING_M":500},"geometry":{"type":"Point","coordinates":[-117.52582346745669,49.51896160238114]}},{"type":"Feature","properties":{"GRID_ID":470,"GRID_X":1612500.0,"GRID_Y":537500.0,"SPACING_M":500},"geometry":{"type":"Point","coordinates":[-117.52499924872392,49.52342765207863]}},{"type":"Feature","properties":{"GRID_ID":471,"GRID_X":1612500.0,"GRID_Y":538000.0,"SPACING_M":500},"geometry":{"type":"Point","coordinates":[-117.5241748704115,49.5278936665267]}},{"type":"Feature","properties":{"GRID_ID":472,"GRID_X":1612500.0,"GRID_Y":538500.0,"SPACING_M":500},"geometry":{"type":"Point","coordinates":[-117.52335033247326,49.53235964574379]}},{"type":"Feature","properties":{"GRID_ID":473,"GRID_X":1612500.0,"GRID_Y":539000.0,"SPACING_M":500},"geometry":{"type":"Point","coordinates":[-117.52252563486314,49.536825589748474]}},{"type":"Feature","properties":{"GRID_ID":474,"GRID_X":1612500.0,"GRID_Y":539500.0,"SPACING_M":500},"geometry":{"type":"Point","coordinates":[-117.5217007775349,49.54129149855928]}},{"type":"Feature","properties":{"GRID_ID":475,"GRID_X":1612500.0,"GRID_Y":540000.0,"SPACING_M":500},"geometry":{"type":"Point","coordinates":[-117.52087576044242,49.54575737219476]}},{"type":"Feature","properties":{"GRID_ID":476,"GRID_X":1612500.0,"GRID_Y":540500.0,"SPACING_M":500},"geometry":{"type":"Point","coordinates":[-117.52005058353949,49.55022321067343]}},{"type":"Feature","properties":{"GRID_ID":477,"GRID_X":1612500.0,"GRID_Y":541000.0,"SPACING_M":500},"geometry":{"type":"Point","coordinates":[-117.51922524677985,49.554689014013945]}},{"type":"Feature","properties":{"GRID_ID":478,"GRID_X":1612500.0,"GRID_Y":541500.0,"SPACING_M":500},"geometry":{"type":"Point","coordinates":[-117.51839975011731,49.559154782234806]}},{"type":"Feature","properties":{"GRID_ID":479,"GRID_X":1612500.0,"GRID_Y":542000.0,"SPACING_M":500},"geometry":{"type":"Point","coordinates":[-117.51757409350563,49.563620515354586]}},{"type":"Feature","properties":{"GRID_ID":480,"GRID_X":1612500.0,"GRID_Y":542500.0,"SPACING_M":500},"geometry":{"type":"Point","coordinates":[-117.51674827689848,49.56808621339175]}},{"type":"Feature","properties":{"GRID_ID":481,"GRID_X":1612500.0,"GRID_Y":543000.0,"SPACING_M":500},"geometry":{"type":"Point","coordinates":[-117.51592230024966,49.572551876364976]}},{"type":"Feature","properties":{"GRID_ID":482,"GRID_X":1612500.0,"GRID_Y":543500.0,"SPACING_M":500},"geometry":{"type":"Point","coordinates":[-117.51509616351282,49.5770175042928]}},{"type":"Feature","properties":{"GRID_ID":483,"GRID_X":1612500.0,"GRID_Y":544000.0,"SPACING_M":500},"geometry":{"type":"Point","coordinates":[-117.51426986664164,49.58148309719376]}},{"type":"Feature","properties":{"GRID_ID":484,"GRID_X":1612500.0,"GRID_Y":544500.0,"SPACING_M":500},"geometry":{"type":"Point","coordinates":[-117.5134434095898,49.585948655086526]}},{"type":"Feature","properties":{"GRID_ID":485,"GRID_X":1612500.0,"GRID_Y":545000.0,"SPACING_M":500},"geometry":{"type":"Point","coordinates":[-117.51261679231091,49.59041417798959]}},{"type":"Feature","properties":{"GRID_ID":486,"GRID_X":1612500.0,"GRID_Y":545500.0,"SPACING_M":500},"geometry":{"type":"Point","coordinates":[-117.51179001475862,49.594879665921574]}},{"type":"Feature","properties":{"GRID_ID":487,"GRID_X":1612500.0,"GRID_Y":546000.0,"SPACING_M":500},"geometry":{"type":"Point","coordinates":[-117.51096307688651,49.599345118901105]}},{"type":"Feature","properties":{"GRID_ID":488,"GRID_X":1612500.0,"GRID_Y":546500.0,"SPACING_M":500},"geometry":{"type":"Point","coordinates":[-117.51013597864822,49.60381053694664]}},{"type":"Feature","properties":{"GRID_ID":489,"GRID_X":1612500.0,"GRID_Y":547000.0,"SPACING_M":500},"geometry":{"type":"Point","coordinates":[-117.50930871999728,49.60827592007689]}},{"type":"Feature","properties":{"GRID_ID":490,"GRID_X":1612500.0,"GRID_Y":547500.0,"SPACING_M":500},"geometry":{"type":"Point","coordinates":[-117.50848130088725,49.61274126831038]}},{"type":"Feature","properties":{"GRID_ID":491,"GRID_X":1613000.0,"GRID_Y":527500.0,"SPACING_M":500},"geometry":{"type":"Point","coordinates":[-117.53461403980847,49.43356345805432]}},{"type":"Feature","properties":{"GRID_ID":492,"GRID_X":1613000.0,"GRID_Y":528000.0,"SPACING_M":500},"geometry":{"type":"Point","coordinates":[-117.53379219305992,49.43803013270549]}},{"type":"Feature","properties":{"GRID_ID":493,"GRID_X":1613000.0,"GRID_Y":528500.0,"SPACING_M":500},"geometry":{"type":"Point","coordinates":[-117.53297018748256,49.44249677174383]}},{"type":"Feature","properties":{"GRID_ID":494,"GRID_X":1613000.0,"GRID_Y":529000.0,"SPACING_M":500},"geometry":{"type":"Point","coordinates":[-117.53214802303059,49.446963375187785]}},{"type":"Feature","properties":{"GRID_ID":495,"GRID_X":1613000.0,"GRID_Y":529500.0,"SPACING_M":500},"geometry":{"type":"Point","coordinates":[-117.53132569965813,49.45142994305591]}},{"type":"Feature","properties":{"GRID_ID":496,"GRID_X":1613000.0,"GRID_Y":530000.0,"SPACING_M":500},"geometry":{"type":"Point","coordinates":[-117.53050321731936,49.45589647536669]}},{"type":"Feature","properties":{"GRID_ID":497,"GRID_X":1613000.0,"GRID_Y":530500.0,"SPACING_M":500},"geometry":{"type":"Point","coordinates":[-117.5296805759684,49.46036297213858]}},{"type":"Feature","properties":{"GRID_ID":498,"GRID_X":1613000.0,"GRID_Y":531000.0,"SPACING_M":500},"geometry":{"type":"Point","coordinates":[-117.52885777555933,49.464829433389966]}},{"type":"Feature","properties":{"GRID_ID":499,"GRID_X":1613000.0,"GRID_Y":531500.0,"SPACING_M":500},"geometry":{"type":"Point","coordinates":[-117.52803481604624,49.469295859139514]}},{"type":"Feature","properties":{"GRID_ID":500,"GRID_X":1613000.0,"GRID_Y":532000.0,"SPACING_M":500},"geometry":{"type":"Point","coordinates":[-117.52721169738324,49.473762249405624]}}]}
